ID,Address,City,Country,ADDRESS,location,point,latitude,longitude,altitude
0,א סאפא ,ירושלים,ישראל,"א סאפא ,ירושלים,ישראל","א סאפא, بيت صفافا, רמת רחל, ירושלים, נפת ירושלים, מחוז ירושלים, no, ישראל","(31.7320037, 35.2048055, 0.0)",31.7320037,35.2048055,0
1,א שאבי 4,ירושלים,ישראל,"א שאבי 4,ירושלים,ישראל","דרך שועפאט/א שאבי, שועפט, بيت حنينا, ירושלים, נפת ירושלים, מחוז ירושלים, no, ישראל","(31.81802, 35.228361, 0.0)",31.81802,35.228361,0
2,א שייח' ,ירושלים,ישראל,"א שייח' ,ירושלים,ישראל","צאלח א-דין, باب الساهرة, ירושלים, נפת ירושלים, מחוז ירושלים, 91194, ישראל","(31.7845528, 35.2319225, 0.0)",31.7845528,35.2319225,0
3,א שייח' ,ירושלים,ישראל,"א שייח' ,ירושלים,ישראל","צאלח א-דין, باب الساهرة, ירושלים, נפת ירושלים, מחוז ירושלים, 91194, ישראל","(31.7845528, 35.2319225, 0.0)",31.7845528,35.2319225,0
4,א.י. שחראי ,ירושלים,ישראל,"א.י. שחראי ,ירושלים,ישראל","שחראי, רמת בית הכרם, ירושלים, נפת ירושלים, מחוז ירושלים, no, ישראל","(31.7704745, 35.1855696, 0.0)",31.7704745,35.1855696,0
5,אבא אבן ,ירושלים,ישראל,"אבא אבן ,ירושלים,ישראל","אבא אבן, רוממה, ירושלים, נפת ירושלים, מחוז ירושלים, no, ישראל","(31.7854131, 35.2052998, 0.0)",31.7854131,35.2052998,0
10,אבו רביע ,ירושלים,ישראל,"אבו רביע ,ירושלים,ישראל","אבו רביע, נוף ציון, ירושלים, נפת ירושלים, מחוז ירושלים, no, ישראל","(31.7499892, 35.2394777, 0.0)",31.7499892,35.2394777,0
11,אביזוהר ,ירושלים,ישראל,"אביזוהר ,ירושלים,ישראל","אביזוהר, יפה נוף, כפר שאול, ירושלים, נפת ירושלים, מחוז ירושלים, no, ישראל","(31.7746161, 35.1874251, 0.0)",31.7746161,35.1874251,0
12,אביטל ,ירושלים,ישראל,"אביטל ,ירושלים,ישראל","אביטל, תלפיות, רמת רחל, ירושלים, נפת ירושלים, מחוז ירושלים, no, ישראל","(31.7510828, 35.2116319, 0.0)",31.7510828,35.2116319,0
13,אבינדב ,ירושלים,ישראל,"אבינדב ,ירושלים,ישראל","אבינדב, הבוכרים, ירושלים, נפת ירושלים, מחוז ירושלים, no, ישראל","(31.7940277, 35.2200268, 0.0)",31.7940277,35.2200268,0
14,אביר יעקב ,ירושלים,ישראל,"אביר יעקב ,ירושלים,ישראל","אביר יעקב, קרית קמניץ, ירושלים, נפת ירושלים, מחוז ירושלים, no, ישראל","(31.8396553, 35.2496806, 0.0)",31.8396553,35.2496806,0
15,אבן האזל ,ירושלים,ישראל,"אבן האזל ,ירושלים,ישראל","אבן האזל, קרית בעלז, מקור ברוך, ירושלים, נפת ירושלים, מחוז ירושלים, no, ישראל","(31.7957155, 35.2132341, 0.0)",31.7957155,35.2132341,0
16,אבן ח'לדון ,ירושלים,ישראל,"אבן ח'לדון ,ירושלים,ישראל","איבן חלדון, باب الساهرة, ירושלים, נפת ירושלים, מחוז ירושלים, no, ישראל","(31.7873597, 35.2315857, 0.0)",31.7873597,35.2315857,0
18,אבן ישראל ,ירושלים,ישראל,"אבן ישראל ,ירושלים,ישראל","אבן ישראל, מאה שערים, ירושלים, נפת ירושלים, מחוז ירושלים, no, ישראל","(31.7831677, 35.2171951, 0.0)",31.7831677,35.2171951,0
20,אברהם אידלזון ,ירושלים,ישראל,"אברהם אידלזון ,ירושלים,ישראל","אברהם אידלזון, רמות, ירושלים, נפת ירושלים, מחוז ירושלים, no, ישראל","(31.8205808, 35.1887976, 0.0)",31.8205808,35.1887976,0
21,אברהם פררה ,ירושלים,ישראל,"אברהם פררה ,ירושלים,ישראל","אברהם פררה, הולילנד, בית וגן, ירושלים, נפת ירושלים, מחוז ירושלים, no, ישראל","(31.7566617, 35.189327, 0.0)",31.7566617,35.189327,0
22,אברהם שטרן ,ירושלים,ישראל,"אברהם שטרן ,ירושלים,ישראל","אברהם שטרן, רמת דניה, ירושלים, נפת ירושלים, מחוז ירושלים, no, ישראל","(31.7565785, 35.1806121, 0.0)",31.7565785,35.1806121,0
24,אבשלום חביב ,ירושלים,ישראל,"אבשלום חביב ,ירושלים,ישראל","אבשלום חביב, תלפיות מזרח, ירושלים, נפת ירושלים, מחוז ירושלים, no, ישראל","(31.7514808, 35.2380615, 0.0)",31.7514808,35.2380615,0
25,אגריפס ,ירושלים,ישראל,"אגריפס ,ירושלים,ישראל","אגריפס, נחלאות, ירושלים, נפת ירושלים, מחוז ירושלים, no, ישראל","(31.7834672, 35.2147894, 0.0)",31.7834672,35.2147894,0
26,אגריפס 4,ירושלים,ישראל,"אגריפס 4,ירושלים,ישראל","פלטין, 4, אגריפס, נחלאות, ירושלים, נפת ירושלים, מחוז ירושלים, 94301, ישראל","(31.7830364, 35.2173753, 0.0)",31.7830364,35.2173753,0
27,אדם ,ירושלים,ישראל,"אדם ,ירושלים,ישראל","אדם, תלפיות, רמת רחל, ירושלים, נפת ירושלים, מחוז ירושלים, no, ישראל","(31.7496228, 35.2303137, 0.0)",31.7496228,35.2303137,0
28,אדמונד פלג ,ירושלים,ישראל,"אדמונד פלג ,ירושלים,ישראל","אדמונד פלג, נוה יעקב, ירושלים, נפת ירושלים, מחוז ירושלים, no, ישראל","(31.8413666, 35.2444313, 0.0)",31.8413666,35.2444313,0
29,אהרון אשכולי 4,ירושלים,ישראל,"אהרון אשכולי 4,ירושלים,ישראל","4, אהרון אשכולי, רמות ב', ירושלים, נפת ירושלים, מחוז ירושלים, no, ישראל","(31.8119478, 35.193935, 0.0)",31.8119478,35.193935,0
30,אהרון ברנד ,ירושלים,ישראל,"אהרון ברנד ,ירושלים,ישראל","הרב אהרון ברנד, הר נוף, יפה נוף, כפר שאול, ירושלים, נפת ירושלים, מחוז ירושלים, no, ישראל","(31.7837588, 35.1724218, 0.0)",31.7837588,35.1724218,0
31,אוהל יהושע ,ירושלים,ישראל,"אוהל יהושע ,ירושלים,ישראל","אוהל יהושע, קרית בעלז, הר חוצבים, ירושלים, נפת ירושלים, מחוז ירושלים, no, ישראל","(31.7959287, 35.2089067, 0.0)",31.7959287,35.2089067,0
32,אוהלי יוסף ,ירושלים,ישראל,"אוהלי יוסף ,ירושלים,ישראל","אוהלי יוסף, סנהדריה, ירושלים, נפת ירושלים, מחוז ירושלים, no, ישראל","(31.7975487, 35.2165277, 0.0)",31.7975487,35.2165277,0
33,אורוגואי ,ירושלים,ישראל,"אורוגואי ,ירושלים,ישראל","אורוגואי, קרית היובל, ירושלים, נפת ירושלים, מחוז ירושלים, no, ישראל","(31.7612209, 35.1756859, 0.0)",31.7612209,35.1756859,0
35,אחד העם ,ירושלים,ישראל,"אחד העם ,ירושלים,ישראל","אחד העם, טלביה, ירושלים, נפת ירושלים, מחוז ירושלים, no, ישראל","(31.7737859, 35.2192873, 0.0)",31.7737859,35.2192873,0
38,אחמד עלי ,ירושלים,ישראל,"אחמד עלי ,ירושלים,ישראל","שרה, הר הצופים, ירושלים, נפת ירושלים, מחוז ירושלים, no, ישראל","(31.7984497, 35.2451385, 0.0)",31.7984497,35.2451385,0
39,אחמד עלי ,ירושלים,ישראל,"אחמד עלי ,ירושלים,ישראל","שרה, הר הצופים, ירושלים, נפת ירושלים, מחוז ירושלים, no, ישראל","(31.7984497, 35.2451385, 0.0)",31.7984497,35.2451385,0
40,אחמד שאוקי ,ירושלים,ישראל,"אחמד שאוקי ,ירושלים,ישראל","אחמד שאוקי, شعفاط‎, ירושלים, נפת ירושלים, מחוז ירושלים, no, ישראל","(31.813672, 35.2298767, 0.0)",31.813672,35.2298767,0
41,אייזיק רמבה ,ירושלים,ישראל,"אייזיק רמבה ,ירושלים,ישראל","אייזיק רמבה, תלפיות, רמת רחל, ירושלים, נפת ירושלים, מחוז ירושלים, no, ישראל","(31.7511965, 35.2292999, 0.0)",31.7511965,35.2292999,0
42,איסלנד ,ירושלים,ישראל,"איסלנד ,ירושלים,ישראל","איסלנד, קרית מנחם, ירושלים, נפת ירושלים, מחוז ירושלים, no, ישראל","(31.7590669, 35.1641684, 0.0)",31.7590669,35.1641684,0
43,איסלנד 44,ירושלים,ישראל,"איסלנד 44,ירושלים,ישראל","44, איסלנד, קרית מנחם, ירושלים, נפת ירושלים, מחוז ירושלים, no, ישראל","(31.7593838, 35.164354, 0.0)",31.7593838,35.164354,0
44,אל אביאד ,ירושלים,ישראל,"אל אביאד ,ירושלים,ישראל","אל-אביאד, جبل مكبر, ירושלים, נפת ירושלים, מחוז ירושלים, no, ישראל","(31.7656797, 35.2483388, 0.0)",31.7656797,35.2483388,0
49,אל ח'נסא ,ירושלים,ישראל,"אל ח'נסא ,ירושלים,ישראל","אל חנסא, شعفاط‎, ירושלים, נפת ירושלים, מחוז ירושלים, no, ישראל","(31.8158129, 35.2301092, 0.0)",31.8158129,35.2301092,0
51,אל חרדוב ,ירושלים,ישראל,"אל חרדוב ,ירושלים,ישראל","אל חרדוב, الطور‎, ירושלים, נפת ירושלים, מחוז ירושלים, no, ישראל","(31.7803667, 35.253724, 0.0)",31.7803667,35.253724,0
52,אל חרירי ,ירושלים,ישראל,"אל חרירי ,ירושלים,ישראל","אל חרירי, وادي الجوز, ירושלים, נפת ירושלים, מחוז ירושלים, no, ישראל","(31.7860176, 35.2357997, 0.0)",31.7860176,35.2357997,0
56,אל יעקובי ,ירושלים,ישראל,"אל יעקובי ,ירושלים,ישראל","אל יעקובי, باب الساهرة, ירושלים, נפת ירושלים, מחוז ירושלים, no, ישראל","(31.787687, 35.2332186, 0.0)",31.787687,35.2332186,0
57,אל כורמא' ,ירושלים,ישראל,"אל כורמא' ,ירושלים,ישראל","עין אל לוזה/אל כורמא, מעלות עיר דוד, מעלה הזיתים, أبو طور, ירושלים, נפת ירושלים, מחוז ירושלים, no, ישראל","(31.763165, 35.240385, 0.0)",31.763165,35.240385,0
62,אל מוקדסי ,ירושלים,ישראל,"אל מוקדסי ,ירושלים,ישראל","אל מוקדסי/אל מותנבי, אל מקדש, קרית מנחם בגין, وادي الجوز, ירושלים, נפת ירושלים, מחוז ירושלים, no, ישראל","(31.79007, 35.238098, 0.0)",31.79007,35.238098,0
68,אל עומרי ,ירושלים,ישראל,"אל עומרי ,ירושלים,ישראל","العمري, הרובע המוסלמי, העיר העתיקה, ירושלים, נפת ירושלים, מחוז ירושלים, no, ישראל","(31.7821216, 35.236, 0.0)",31.7821216,35.236,0
70,אל קצר ,ירושלים,ישראל,"אל קצר ,ירושלים,ישראל","אלג'מעיה/אל קצר, אל זייתון, גבעת המטוס, بيت صفافا, רמת רחל, ירושלים, נפת ירושלים, מחוז ירושלים, no, ישראל","(31.740875, 35.204796, 0.0)",31.740875,35.204796,0
72,אל ת'ורי 4,ירושלים,ישראל,"אל ת'ורי 4,ירושלים,ישראל","אל ת'ורי, וואדי הילווה, מעלה הזיתים, أبو طور, ירושלים, נפת ירושלים, מחוז ירושלים, no, ישראל","(31.764765, 35.231474, 0.0)",31.764765,35.231474,0
75,אליהו לנקין ,ירושלים,ישראל,"אליהו לנקין ,ירושלים,ישראל","אליהו לנקין, תלפיות, רמת רחל, ירושלים, נפת ירושלים, מחוז ירושלים, no, ישראל","(31.7504535, 35.2243907, 0.0)",31.7504535,35.2243907,0
76,אליהו מרידור 44,ירושלים,ישראל,"אליהו מרידור 44,ירושלים,ישראל","44, אליהו מרידור, פסגת זאב מערב, פסגת זאב, ירושלים, נפת ירושלים, מחוז ירושלים, no, ישראל","(31.8158588, 35.2486703, 0.0)",31.8158588,35.2486703,0
77,אליהו קורן 4,ירושלים,ישראל,"אליהו קורן 4,ירושלים,ישראל","אליהו קורן, חומת שמואל, ירושלים, נפת ירושלים, מחוז ירושלים, no, ישראל","(31.722451, 35.2244206, 0.0)",31.722451,35.2244206,0
78,אליעזר הגדול ,ירושלים,ישראל,"אליעזר הגדול ,ירושלים,ישראל","אליעזר הגדול, קטמונים (גוננים), ירושלים, נפת ירושלים, מחוז ירושלים, no, ישראל","(31.7547755, 35.2051437, 0.0)",31.7547755,35.2051437,0
79,אליעזר הופיין ,ירושלים,ישראל,"אליעזר הופיין ,ירושלים,ישראל","אליעזר הופין, רמות ב', ירושלים, נפת ירושלים, מחוז ירושלים, no, ישראל","(31.810094, 35.1955961, 0.0)",31.810094,35.1955961,0
80,אליעזר קפלן ,ירושלים,ישראל,"אליעזר קפלן ,ירושלים,ישראל","קבר אליעזר קפלן, Avenue of the Righteous among the Nations, יפה נוף, כפר שאול, ירושלים, נפת ירושלים, מחוז ירושלים, no, ישראל","(31.7753303, 35.1789062, 0.0)",31.7753303,35.1789062,0
81,אליעזר שילוני ,ירושלים,ישראל,"אליעזר שילוני ,ירושלים,ישראל","אליעזר שילוני, גבעת משואה, ירושלים, נפת ירושלים, מחוז ירושלים, no, ישראל","(31.7510445, 35.1732722, 0.0)",31.7510445,35.1732722,0
82,אליעזרוב ,ירושלים,ישראל,"אליעזרוב ,ירושלים,ישראל","אליעזרוב, הבוכרים, ירושלים, נפת ירושלים, מחוז ירושלים, no, ישראל","(31.7962326, 35.2181334, 0.0)",31.7962326,35.2181334,0
85,אלפסי ,ירושלים,ישראל,"אלפסי ,ירושלים,ישראל","אלפסי, רחביה, ירושלים, נפת ירושלים, מחוז ירושלים, no, ישראל","(31.7729121, 35.2121092, 0.0)",31.7729121,35.2121092,0
86,אלקנה ,ירושלים,ישראל,"אלקנה ,ירושלים,ישראל","אלקנה, קרית בעלז, הבוכרים, ירושלים, נפת ירושלים, מחוז ירושלים, no, ישראל","(31.7941351, 35.2138576, 0.0)",31.7941351,35.2138576,0
88,אמרי בינה ,ירושלים,ישראל,"אמרי בינה ,ירושלים,ישראל","אמרי בינה, קרית בעלז, הר חוצבים, ירושלים, נפת ירושלים, מחוז ירושלים, no, ישראל","(31.7966837, 35.2112363, 0.0)",31.7966837,35.2112363,0
91,אסתר המלכה ,ירושלים,ישראל,"אסתר המלכה ,ירושלים,ישראל","אסתר המלכה, בקעה, ירושלים, נפת ירושלים, מחוז ירושלים, no, ישראל","(31.758942, 35.2226146, 0.0)",31.758942,35.2226146,0
92,אפרים אורבך ,ירושלים,ישראל,"אפרים אורבך ,ירושלים,ישראל","אפרים אורבך, בית ישראל, ירושלים, נפת ירושלים, מחוז ירושלים, no, ישראל","(31.7887133, 35.2224464, 0.0)",31.7887133,35.2224464,0
93,אפרסמון ,ירושלים,ישראל,"אפרסמון ,ירושלים,ישראל","אפרסמון, גבעת המטוס, شرفات, ירושלים, נפת ירושלים, מחוז ירושלים, no, ישראל","(31.7327867, 35.2012491, 0.0)",31.7327867,35.2012491,0
94,אפרתה ,ירושלים,ישראל,"אפרתה ,ירושלים,ישראל","אפרתה, תלפיות, ירושלים, נפת ירושלים, מחוז ירושלים, no, ישראל","(31.7533957, 35.2226423, 0.0)",31.7533957,35.2226423,0
95,אצ''ל ,ירושלים,ישראל,"אצ''ל ,ירושלים,ישראל","אצ""ל, בית שמש, הרובע, בית שמש, נפת ירושלים, מחוז ירושלים, no, ישראל","(31.7511651, 34.9819467, 0.0)",31.7511651,34.9819467,0
96,אצ''ל 4,ירושלים,ישראל,"אצ''ל 4,ירושלים,ישראל","אצ""ל, בית שמש, הרובע, בית שמש, נפת ירושלים, מחוז ירושלים, no, ישראל","(31.7511651, 34.9819467, 0.0)",31.7511651,34.9819467,0
98,אריה אלטמן ,ירושלים,ישראל,"אריה אלטמן ,ירושלים,ישראל","אריה אלטמן, פסגת זאב מרכז, פסגת זאב, ירושלים, נפת ירושלים, מחוז ירושלים, no, ישראל","(31.82889, 35.2463486, 0.0)",31.82889,35.2463486,0
99,אריה בן אליעזר ,ירושלים,ישראל,"אריה בן אליעזר ,ירושלים,ישראל","אריה בן אליעזר, شرفات, ירושלים, נפת ירושלים, מחוז ירושלים, no, ישראל","(31.7373066, 35.1973355, 0.0)",31.7373066,35.1973355,0
100,אריה בן אליעזר ,ירושלים,ישראל,"אריה בן אליעזר ,ירושלים,ישראל","אריה בן אליעזר, شرفات, ירושלים, נפת ירושלים, מחוז ירושלים, no, ישראל","(31.7373066, 35.1973355, 0.0)",31.7373066,35.1973355,0
101,אריה דולצ'ין ,ירושלים,ישראל,"אריה דולצ'ין ,ירושלים,ישראל","אריה דולצ'ין, גבעת משואה, ירושלים, נפת ירושלים, מחוז ירושלים, no, ישראל","(31.7505607, 35.1693182, 0.0)",31.7505607,35.1693182,0
102,אריה דולצ'ין 4,ירושלים,ישראל,"אריה דולצ'ין 4,ירושלים,ישראל","אריה דולצ'ין, גבעת משואה, ירושלים, נפת ירושלים, מחוז ירושלים, no, ישראל","(31.7516282, 35.1678449, 0.0)",31.7516282,35.1678449,0
103,אריה ורשבסקי ,ירושלים,ישראל,"אריה ורשבסקי ,ירושלים,ישראל","אריה ורשבסקי, أم طوبا, רמת רחל, ירושלים, נפת ירושלים, מחוז ירושלים, no, ישראל","(31.7295918, 35.2195132, 0.0)",31.7295918,35.2195132,0
104,ארלוזורוב ,ירושלים,ישראל,"ארלוזורוב ,ירושלים,ישראל","ארלוזורוב, טלביה, ירושלים, נפת ירושלים, מחוז ירושלים, no, ישראל","(31.7735825, 35.2158253, 0.0)",31.7735825,35.2158253,0
105,ארץ חפץ ,ירושלים,ישראל,"ארץ חפץ ,ירושלים,ישראל","ארץ חפץ, מעלות דפנה, ירושלים, נפת ירושלים, מחוז ירושלים, no, ישראל","(31.7957397, 35.2234098, 0.0)",31.7957397,35.2234098,0
106,ארץ חפץ ,ירושלים,ישראל,"ארץ חפץ ,ירושלים,ישראל","ארץ חפץ, מעלות דפנה, ירושלים, נפת ירושלים, מחוז ירושלים, no, ישראל","(31.7957397, 35.2234098, 0.0)",31.7957397,35.2234098,0
107,ארתור הנטקה ,ירושלים,ישראל,"ארתור הנטקה ,ירושלים,ישראל","ארתור הנטקה, קרית היובל, ירושלים, נפת ירושלים, מחוז ירושלים, no, ישראל","(31.7687225, 35.1750029, 0.0)",31.7687225,35.1750029,0
108,ארתור הנטקה 4,ירושלים,ישראל,"ארתור הנטקה 4,ירושלים,ישראל","4, ארתור הנטקה, קרית היובל, ירושלים, נפת ירושלים, מחוז ירושלים, no, ישראל","(31.768934, 35.1777577, 0.0)",31.768934,35.1777577,0
109,אשר ,ירושלים,ישראל,"אשר ,ירושלים,ישראל","אשר, בקעה, ירושלים, נפת ירושלים, מחוז ירושלים, no, ישראל","(31.7586595, 35.2165166, 0.0)",31.7586595,35.2165166,0
110,בוסתנאי ,ירושלים,ישראל,"בוסתנאי ,ירושלים,ישראל","בוסתנאי, קטמון הישנה, ירושלים, נפת ירושלים, מחוז ירושלים, no, ישראל","(31.7630108, 35.2121393, 0.0)",31.7630108,35.2121393,0
111,בורוכוב ,ירושלים,ישראל,"בורוכוב ,ירושלים,ישראל","בורוכוב, קרית היובל, ירושלים, נפת ירושלים, מחוז ירושלים, no, ישראל","(31.7677646, 35.1776992, 0.0)",31.7677646,35.1776992,0
112,בורוכוב ,ירושלים,ישראל,"בורוכוב ,ירושלים,ישראל","בורוכוב, קרית היובל, ירושלים, נפת ירושלים, מחוז ירושלים, no, ישראל","(31.7677646, 35.1776992, 0.0)",31.7677646,35.1776992,0
113,בורוכוב 4,ירושלים,ישראל,"בורוכוב 4,ירושלים,ישראל","4, דב בר בורוכוב, קרית היובל, ירושלים, נפת ירושלים, מחוז ירושלים, no, ישראל","(31.7681371, 35.1773751, 0.0)",31.7681371,35.1773751,0
114,בטן אל הווא ,ירושלים,ישראל,"בטן אל הווא ,ירושלים,ישראל","בטן אל הווא, מעלה הזיתים, رأس العمود, ירושלים, נפת ירושלים, מחוז ירושלים, no, ישראל","(31.7664338, 35.2399004, 0.0)",31.7664338,35.2399004,0
115,בטן אל הווא 4,ירושלים,ישראל,"בטן אל הווא 4,ירושלים,ישראל","בטן אל הווא, מעלה הזיתים, رأس العمود, ירושלים, נפת ירושלים, מחוז ירושלים, no, ישראל","(31.7664338, 35.2399004, 0.0)",31.7664338,35.2399004,0
117,בית''ר ,ירושלים,ישראל,"בית''ר ,ירושלים,ישראל","בית""ר, תלפיות, ירושלים, נפת ירושלים, מחוז ירושלים, no, ישראל","(31.7547294, 35.2245572, 0.0)",31.7547294,35.2245572,0
118,בית הדפוס ,ירושלים,ישראל,"בית הדפוס ,ירושלים,ישראל","בית הדפוס, אזור תעשיה גבעת שאול, קרית משה, כפר שאול, ירושלים, נפת ירושלים, מחוז ירושלים, no, ישראל","(31.7861121, 35.1862787, 0.0)",31.7861121,35.1862787,0
119,בית וגן ,ירושלים,ישראל,"בית וגן ,ירושלים,ישראל","בית וגן, ירושלים, נפת ירושלים, מחוז ירושלים, 9695102, ישראל","(31.7641422, 35.1866879, 0.0)",31.7641422,35.1866879,0
120,בית פאגי ,ירושלים,ישראל,"בית פאגי ,ירושלים,ישראל","בית פאגי, بيت فاجي, الطور‎, ירושלים, נפת ירושלים, מחוז ירושלים, no, ישראל","(31.778656, 35.250367, 0.0)",31.778656,35.250367,0
122,בית שערים ,ירושלים,ישראל,"בית שערים ,ירושלים,ישראל","בית שערים, קריית מטרסדורף, גבעת שאול, כפר שאול, ירושלים, נפת ירושלים, מחוז ירושלים, no, ישראל","(31.79014, 35.1963115, 0.0)",31.79014,35.1963115,0
123,בני ברית 4,ירושלים,ישראל,"בני ברית 4,ירושלים,ישראל","4, בני ברית, מאה שערים, ירושלים, נפת ירושלים, מחוז ירושלים, no, ישראל","(31.7844018, 35.2205257, 0.0)",31.7844018,35.2205257,0
124,בני בתירא ,ירושלים,ישראל,"בני בתירא ,ירושלים,ישראל","בני בתירא, קטמונים (גוננים), ירושלים, נפת ירושלים, מחוז ירושלים, no, ישראל","(31.7557657, 35.2044443, 0.0)",31.7557657,35.2044443,0
125,בצלאל ,ירושלים,ישראל,"בצלאל ,ירושלים,ישראל","בצלאל, מרטין בובר, הר הצופים, ירושלים, נפת ירושלים, מחוז ירושלים, no, ישראל","(31.79313135, 35.247140038720545, 0.0)",31.79313135,35.24714004,0
126,בצלאל אשכנזי ,ירושלים,ישראל,"בצלאל אשכנזי ,ירושלים,ישראל","בצלאל אשכנזי, בית ישראל, ירושלים, נפת ירושלים, מחוז ירושלים, no, ישראל","(31.7909007, 35.2220235, 0.0)",31.7909007,35.2220235,0
127,בר יוחאי ,ירושלים,ישראל,"בר יוחאי ,ירושלים,ישראל","בר יוחאי, הולילנד, גבעת מרדכי, ירושלים, נפת ירושלים, מחוז ירושלים, no, ישראל","(31.7538381, 35.1928953, 0.0)",31.7538381,35.1928953,0
128,בר כוכבא 4,ירושלים,ישראל,"בר כוכבא 4,ירושלים,ישראל","4, בר כוכבא, הגבעה הצרפתית, ירושלים, נפת ירושלים, מחוז ירושלים, no, ישראל","(31.8046633, 35.2366718, 0.0)",31.8046633,35.2366718,0
129,ברוך צוקרמן ,ירושלים,ישראל,"ברוך צוקרמן ,ירושלים,ישראל","ברוך צוקרמן, נוה יעקב, ירושלים, נפת ירושלים, מחוז ירושלים, no, ישראל","(31.8441729, 35.2436283, 0.0)",31.8441729,35.2436283,0
130,ברוך צוקרמן 4,ירושלים,ישראל,"ברוך צוקרמן 4,ירושלים,ישראל","4, ברוך צוקרמן, נוה יעקב, ירושלים, נפת ירושלים, מחוז ירושלים, no, ישראל","(31.8440832, 35.2440338, 0.0)",31.8440832,35.2440338,0
132,ג'עפר א סאדק ,ירושלים,ישראל,"ג'עפר א סאדק ,ירושלים,ישראל","ג'עפר א-סאדק, ירושלים, נפת ירושלים, מחוז ירושלים, no, ישראל","(31.8412422, 35.2323417, 0.0)",31.8412422,35.2323417,0
133,גבעת שאול ,ירושלים,ישראל,"גבעת שאול ,ירושלים,ישראל","גבעת שאול, כפר שאול, ירושלים, נפת ירושלים, מחוז ירושלים, 9546522, ישראל","(31.7911185, 35.1931023, 0.0)",31.7911185,35.1931023,0
134,גדוד מכמש ,ירושלים,ישראל,"גדוד מכמש ,ירושלים,ישראל","גדוד מכמש, פסגת זאב מרכז, פסגת זאב, ירושלים, נפת ירושלים, מחוז ירושלים, no, ישראל","(31.8264438, 35.2424886, 0.0)",31.8264438,35.2424886,0
135,גדליה בובליק ,ירושלים,ישראל,"גדליה בובליק ,ירושלים,ישראל","גדליה בובליק, רמות א', ירושלים, נפת ירושלים, מחוז ירושלים, no, ישראל","(31.815584, 35.2007746, 0.0)",31.815584,35.2007746,0
136,גואטמלה ,ירושלים,ישראל,"גואטמלה ,ירושלים,ישראל","גואטמלה, עיר גנים, ירושלים, נפת ירושלים, מחוז ירושלים, no, ישראל","(31.7565155, 35.17856, 0.0)",31.7565155,35.17856,0
137,גואטמלה ,ירושלים,ישראל,"גואטמלה ,ירושלים,ישראל","גואטמלה, עיר גנים, ירושלים, נפת ירושלים, מחוז ירושלים, no, ישראל","(31.7565155, 35.17856, 0.0)",31.7565155,35.17856,0
138,גיא בן הינום ,ירושלים,ישראל,"גיא בן הינום ,ירושלים,ישראל","גיא בן הינום, أبو طور, ירושלים, נפת ירושלים, מחוז ירושלים, no, ישראל","(31.7698758, 35.22657992129635, 0.0)",31.7698758,35.22657992,0
139,גלעדי ,ירושלים,ישראל,"גלעדי ,ירושלים,ישראל","גלעדי, תלפיות, ירושלים, נפת ירושלים, מחוז ירושלים, no, ישראל","(31.7536269, 35.2236156, 0.0)",31.7536269,35.2236156,0
142,דב גרונר ,ירושלים,ישראל,"דב גרונר ,ירושלים,ישראל","דב גרונר, תלפיות מזרח, ירושלים, נפת ירושלים, מחוז ירושלים, no, ישראל","(31.7509015, 35.2362161, 0.0)",31.7509015,35.2362161,0
143,דב סדן ,ירושלים,ישראל,"דב סדן ,ירושלים,ישראל","דב סדן, פסגת זאב מערב, פסגת זאב, ירושלים, נפת ירושלים, מחוז ירושלים, no, ישראל","(31.8225618, 35.243317, 0.0)",31.8225618,35.243317,0
144,דברי חיים ,ירושלים,ישראל,"דברי חיים ,ירושלים,ישראל","דברי חיים, קרית בעלז, הר חוצבים, ירושלים, נפת ירושלים, מחוז ירושלים, no, ישראל","(31.7970479, 35.2094757, 0.0)",31.7970479,35.2094757,0
145,דברי חיים 4,ירושלים,ישראל,"דברי חיים 4,ירושלים,ישראל","4, דברי חיים, קרית בעלז, הר חוצבים, ירושלים, נפת ירושלים, מחוז ירושלים, no, ישראל","(31.7965467, 35.2103456, 0.0)",31.7965467,35.2103456,0
146,דברי ירוחם ,ירושלים,ישראל,"דברי ירוחם ,ירושלים,ישראל","דברי ירוחם, הולילנד, בית וגן, ירושלים, נפת ירושלים, מחוז ירושלים, no, ישראל","(31.7619708, 35.1891176, 0.0)",31.7619708,35.1891176,0
147,דגל ראובן ,ירושלים,ישראל,"דגל ראובן ,ירושלים,ישראל","דגל ראובן, קריית מטרסדורף, קרית משה, ירושלים, נפת ירושלים, מחוז ירושלים, no, ישראל","(31.788162, 35.1978379, 0.0)",31.788162,35.1978379,0
148,דגן ,ירושלים,ישראל,"דגן ,ירושלים,ישראל","דגן, גילה, ירושלים, נפת ירושלים, מחוז ירושלים, no, ישראל","(31.7374295, 35.1828302, 0.0)",31.7374295,35.1828302,0
149,דהומיי ,ירושלים,ישראל,"דהומיי ,ירושלים,ישראל","דהומיי, קרית מנחם, ירושלים, נפת ירושלים, מחוז ירושלים, no, ישראל","(31.7569048, 35.1639399, 0.0)",31.7569048,35.1639399,0
150,דהומיי 4,ירושלים,ישראל,"דהומיי 4,ירושלים,ישראל","4, דהומיי, קרית מנחם, ירושלים, נפת ירושלים, מחוז ירושלים, no, ישראל","(31.7570981, 35.1665808, 0.0)",31.7570981,35.1665808,0
151,דוד איילון ,ירושלים,ישראל,"דוד איילון ,ירושלים,ישראל","דוד איילון, הולילנד, מלחה, ירושלים, נפת ירושלים, מחוז ירושלים, no, ישראל","(31.7530584, 35.1924496, 0.0)",31.7530584,35.1924496,0
152,דוד ניב ,ירושלים,ישראל,"דוד ניב ,ירושלים,ישראל","דוד ניב, פסגת זאב מערב, شعفاط‎, ירושלים, נפת ירושלים, מחוז ירושלים, no, ישראל","(31.8193899, 35.2387648, 0.0)",31.8193899,35.2387648,0
153,דוד פרידמן 4,ירושלים,ישראל,"דוד פרידמן 4,ירושלים,ישראל","דוד פרידמן, בית ישראל, ירושלים, נפת ירושלים, מחוז ירושלים, no, ישראל","(31.7900598, 35.2212839, 0.0)",31.7900598,35.2212839,0
154,דוד רמז 4,ירושלים,ישראל,"דוד רמז 4,ירושלים,ישראל","התחנה הראשונה, 4, דוד רמז, המושבת הגרמנית, ירושלים, נפת ירושלים, מחוז ירושלים, 935412, ישראל","(31.767222, 35.2244565, 0.0)",31.767222,35.2244565,0
157,דיסקין ,ירושלים,ישראל,"דיסקין ,ירושלים,ישראל","דיסקין, שערי חסד, ירושלים, נפת ירושלים, מחוז ירושלים, no, ישראל","(31.776193, 35.2106112, 0.0)",31.776193,35.2106112,0
158,דניאל ,ירושלים,ישראל,"דניאל ,ירושלים,ישראל","דניאל, מורשה, ירושלים, נפת ירושלים, מחוז ירושלים, no, ישראל","(31.7816683, 35.2257044, 0.0)",31.7816683,35.2257044,0
159,דניאל ינובסקי ,ירושלים,ישראל,"דניאל ינובסקי ,ירושלים,ישראל","דניאל ינובסקי, בקעה, ירושלים, נפת ירושלים, מחוז ירושלים, no, ישראל","(31.7558617, 35.223669, 0.0)",31.7558617,35.223669,0
160,דניאל ינובסקי 4,ירושלים,ישראל,"דניאל ינובסקי 4,ירושלים,ישראל","דניאל ינובסקי, בקעה, ירושלים, נפת ירושלים, מחוז ירושלים, no, ישראל","(31.7557627, 35.224839, 0.0)",31.7557627,35.224839,0
162,דרך בית חנינא ,ירושלים,ישראל,"דרך בית חנינא ,ירושלים,ישראל","דרך מוסה פלד, פסגת זאב צפון, بيت حنينا, ירושלים, נפת ירושלים, מחוז ירושלים, no, ישראל","(31.8300248, 35.2352021, 0.0)",31.8300248,35.2352021,0
163,דרך בית לחם ,ירושלים,ישראל,"דרך בית לחם ,ירושלים,ישראל","דרך בית לחם, גבעת המטוס, بيت صفافا, רמת רחל, ירושלים, נפת ירושלים, מחוז ירושלים, no, ישראל","(31.7432712, 35.2138087, 0.0)",31.7432712,35.2138087,0
164,דרך בית לחם ,ירושלים,ישראל,"דרך בית לחם ,ירושלים,ישראל","דרך בית לחם, גבעת המטוס, بيت صفافا, רמת רחל, ירושלים, נפת ירושלים, מחוז ירושלים, no, ישראל","(31.7432712, 35.2138087, 0.0)",31.7432712,35.2138087,0
165,דרך בית לחם הישנה ,ירושלים,ישראל,"דרך בית לחם הישנה ,ירושלים,ישראל","דרך בית לחם הישנה, מעלה הזיתים, رأس العمود, ירושלים, נפת ירושלים, מחוז ירושלים, no, ישראל","(31.7681295, 35.2456144, 0.0)",31.7681295,35.2456144,0
166,דרך בית לחם הישנה 4,ירושלים,ישראל,"דרך בית לחם הישנה 4,ירושלים,ישראל","דרך בית לחם הישנה, מעלה הזיתים, رأس العمود, ירושלים, נפת ירושלים, מחוז ירושלים, no, ישראל","(31.7681295, 35.2456144, 0.0)",31.7681295,35.2456144,0
167,דרך ג'בל מוכבר ,ירושלים,ישראל,"דרך ג'בל מוכבר ,ירושלים,ישראל","דרך ג'בל מוכבר, חיים ראובן קוברסקי, נוף ציון, ירושלים, נפת ירושלים, מחוז ירושלים, no, ישראל","(31.756676, 35.24295, 0.0)",31.756676,35.24295,0
170,דרך הרכבת ,ירושלים,ישראל,"דרך הרכבת ,ירושלים,ישראל","שדרות ירושלים/דרך הרמא, שדרות ירושלים, נאות יצחק, לוד, נפת רמלה, מחוז המרכז, no, ישראל","(31.938517, 34.886278, 0.0)",31.938517,34.886278,0
171,דרך השילוח ,ירושלים,ישראל,"דרך השילוח ,ירושלים,ישראל","מעלות עיר דוד/דרך השילוח, מעלות עיר דוד, מעלה הזיתים, أبو طور, ירושלים, נפת ירושלים, מחוז ירושלים, no, ישראל","(31.769818, 35.235152, 0.0)",31.769818,35.235152,0
173,דרך חברון ,ירושלים,ישראל,"דרך חברון ,ירושלים,ישראל","דרך חברון, בקעה, ירושלים, נפת ירושלים, מחוז ירושלים, no, ישראל","(31.7613082, 35.2246103, 0.0)",31.7613082,35.2246103,0
174,דרך חברון ,ירושלים,ישראל,"דרך חברון ,ירושלים,ישראל","דרך חברון, בקעה, ירושלים, נפת ירושלים, מחוז ירושלים, no, ישראל","(31.7613082, 35.2246103, 0.0)",31.7613082,35.2246103,0
175,דרך חברון 4,ירושלים,ישראל,"דרך חברון 4,ירושלים,ישראל","דרך חברון, תלפיות, רמת רחל, ירושלים, נפת ירושלים, מחוז ירושלים, no, ישראל","(31.7516082, 35.2194469, 0.0)",31.7516082,35.2194469,0
176,דרך חברון 4,ירושלים,ישראל,"דרך חברון 4,ירושלים,ישראל","דרך חברון, תלפיות, רמת רחל, ירושלים, נפת ירושלים, מחוז ירושלים, no, ישראל","(31.7516082, 35.2194469, 0.0)",31.7516082,35.2194469,0
177,דרך חיים ע. קוליץ ,ירושלים,ישראל,"דרך חיים ע. קוליץ ,ירושלים,ישראל","פארק שטרן/דרך חיים ע.קוליץ, חיים קוליץ, הולילנד, מלחה, ירושלים, נפת ירושלים, מחוז ירושלים, no, ישראל","(31.7516056, 35.179429, 0.0)",31.7516056,35.179429,0
178,דרך יריחו ,ירושלים,ישראל,"דרך יריחו ,ירושלים,ישראל","דרך יריחו, מעלה הזיתים, رأس العمود, ירושלים, נפת ירושלים, מחוז ירושלים, no, ישראל","(31.776432, 35.2402703, 0.0)",31.776432,35.2402703,0
182,דרך ענתות ,ירושלים,ישראל,"דרך ענתות ,ירושלים,ישראל","דרך שועפאט/דרך ענתות, שועפט, شعفاط‎, ירושלים, נפת ירושלים, מחוז ירושלים, no, ישראל","(31.810009, 35.233612, 0.0)",31.810009,35.233612,0
183,דרך ענתות  ,ירושלים,ישראל,"דרך ענתות  ,ירושלים,ישראל","דרך שועפאט/דרך ענתות, שועפט, شعفاط‎, ירושלים, נפת ירושלים, מחוז ירושלים, no, ישראל","(31.810009, 35.233612, 0.0)",31.810009,35.233612,0
184,דרך רמאללה ,ירושלים,ישראל,"דרך רמאללה ,ירושלים,ישראל","בית ספר הלן קלר/דרך רמאללה, ראמאללה, אזור תעשיה עטרות, ירושלים, נפת ירושלים, מחוז ירושלים, no, ישראל","(31.8412755, 35.2301583, 0.0)",31.8412755,35.2301583,0
186,דרך שועפאת ,ירושלים,ישראל,"דרך שועפאת ,ירושלים,ישראל","דרך שועפאט/דרך ענתות, שועפט, شعفاط‎, ירושלים, נפת ירושלים, מחוז ירושלים, no, ישראל","(31.810009, 35.233612, 0.0)",31.810009,35.233612,0
187,דרך שועפאת 4,ירושלים,ישראל,"דרך שועפאת 4,ירושלים,ישראל","ת. רק''ל גבעת המבתר/דרך שועפאט, שועפט, הגבעה הצרפתית, ירושלים, נפת ירושלים, מחוז ירושלים, no, ישראל","(31.805693, 35.234709, 0.0)",31.805693,35.234709,0
190,דרך שכם ,ירושלים,ישראל,"דרך שכם ,ירושלים,ישראל","דרך שכם/לואי ונסן, שכם, باب الساهرة, ירושלים, נפת ירושלים, מחוז ירושלים, no, ישראל","(31.789166, 35.228845, 0.0)",31.789166,35.228845,0
191,דרך שער האריות ,ירושלים,ישראל,"דרך שער האריות ,ירושלים,ישראל","שער האריות/דרך יריחו, דרך יריחו, מעלה הזיתים, رأس العمود, ירושלים, נפת ירושלים, מחוז ירושלים, no, ישראל","(31.781324, 35.238942, 0.0)",31.781324,35.238942,0
192,האדמו''ר מליובאוויטש ,ירושלים,ישראל,"האדמו''ר מליובאוויטש ,ירושלים,ישראל","האדמו""ר מליובאוויטש, רמת שלמה, ירושלים, נפת ירושלים, מחוז ירושלים, no, ישראל","(31.8085776, 35.2170277, 0.0)",31.8085776,35.2170277,0
193,האומן ,ירושלים,ישראל,"האומן ,ירושלים,ישראל","האומן, גבעת המטוס, תלפיות, רמת רחל, ירושלים, נפת ירושלים, מחוז ירושלים, no, ישראל","(31.7449227, 35.2155197, 0.0)",31.7449227,35.2155197,0
194,האומן 4,ירושלים,ישראל,"האומן 4,ירושלים,ישראל","האומן, גבעת המטוס, بيت صفافا, רמת רחל, ירושלים, נפת ירושלים, מחוז ירושלים, no, ישראל","(31.745526, 35.2137915, 0.0)",31.745526,35.2137915,0
195,האייל 4,ירושלים,ישראל,"האייל 4,ירושלים,ישראל","4, האייל, הולילנד, מלחה, ירושלים, נפת ירושלים, מחוז ירושלים, no, ישראל","(31.7537464, 35.1865536, 0.0)",31.7537464,35.1865536,0
196,הארבעה ,ירושלים,ישראל,"הארבעה ,ירושלים,ישראל","הארבעה, פסגת זאב מרכז, פסגת זאב, ירושלים, נפת ירושלים, מחוז ירושלים, no, ישראל","(31.8259067, 35.2425923, 0.0)",31.8259067,35.2425923,0
197,הגומא ,ירושלים,ישראל,"הגומא ,ירושלים,ישראל","הגומא, شرفات, ירושלים, נפת ירושלים, מחוז ירושלים, no, ישראל","(31.7360464, 35.1903141, 0.0)",31.7360464,35.1903141,0
198,הגננת ,ירושלים,ישראל,"הגננת ,ירושלים,ישראל","הגננת, גילה, ירושלים, נפת ירושלים, מחוז ירושלים, no, ישראל","(31.731421, 35.1932568, 0.0)",31.731421,35.1932568,0
199,הדבש 4,ירושלים,ישראל,"הדבש 4,ירושלים,ישראל","הדבש, גילה, ירושלים, נפת ירושלים, מחוז ירושלים, no, ישראל","(31.728576, 35.1886449, 0.0)",31.728576,35.1886449,0
200,הדולב ,ירושלים,ישראל,"הדולב ,ירושלים,ישראל","הדולב, גילה, ירושלים, נפת ירושלים, מחוז ירושלים, no, ישראל","(31.7328878, 35.1881491, 0.0)",31.7328878,35.1881491,0
201,הדישון ,ירושלים,ישראל,"הדישון ,ירושלים,ישראל","הדישון, הולילנד, מלחה, ירושלים, נפת ירושלים, מחוז ירושלים, no, ישראל","(31.7514652, 35.1812009, 0.0)",31.7514652,35.1812009,0
202,הדף היומי ,ירושלים,ישראל,"הדף היומי ,ירושלים,ישראל","הדף היומי, רמות א', ירושלים, נפת ירושלים, מחוז ירושלים, no, ישראל","(31.8167415, 35.2060553, 0.0)",31.8167415,35.2060553,0
203,הדרך האמריקאית ,ירושלים,ישראל,"הדרך האמריקאית ,ירושלים,ישראל","קונבר/הדרך האמריקאית, מעלות עיר דוד (הכביש האמריקאי), جبل مكبر, ירושלים, נפת ירושלים, מחוז ירושלים, no, ישראל","(31.746886, 35.24922, 0.0)",31.746886,35.24922,0
204,ההגנה ,ירושלים,ישראל,"ההגנה ,ירושלים,ישראל","ההגנה, קרית מנחם בגין, הגבעה הצרפתית, ירושלים, נפת ירושלים, מחוז ירושלים, no, ישראל","(31.8021133, 35.2382601, 0.0)",31.8021133,35.2382601,0
205,ההגנה 4,ירושלים,ישראל,"ההגנה 4,ירושלים,ישראל","ההגנה, קרית מנחם בגין, הגבעה הצרפתית, ירושלים, נפת ירושלים, מחוז ירושלים, no, ישראל","(31.8013813, 35.2384404, 0.0)",31.8013813,35.2384404,0
206,הורקניה ,ירושלים,ישראל,"הורקניה ,ירושלים,ישראל","הורקניה, קטמונים (גוננים), ירושלים, נפת ירושלים, מחוז ירושלים, no, ישראל","(31.7575981, 35.2022193, 0.0)",31.7575981,35.2022193,0
207,הזית ,ירושלים,ישראל,"הזית ,ירושלים,ישראל","הזית, מקור ברוך, ירושלים, נפת ירושלים, מחוז ירושלים, no, ישראל","(31.7898939, 35.2114658, 0.0)",31.7898939,35.2114658,0
208,החומה השלישית ,ירושלים,ישראל,"החומה השלישית ,ירושלים,ישראל","החומה השלישית, מורשה, ירושלים, נפת ירושלים, מחוז ירושלים, no, ישראל","(31.7850886, 35.2262471, 0.0)",31.7850886,35.2262471,0
209,החומה השלישית ,ירושלים,ישראל,"החומה השלישית ,ירושלים,ישראל","החומה השלישית, מורשה, ירושלים, נפת ירושלים, מחוז ירושלים, no, ישראל","(31.7850886, 35.2262471, 0.0)",31.7850886,35.2262471,0
210,החלוץ ,ירושלים,ישראל,"החלוץ ,ירושלים,ישראל","החלוץ, קרית משה, כפר שאול, ירושלים, נפת ירושלים, מחוז ירושלים, no, ישראל","(31.7823508, 35.1925624, 0.0)",31.7823508,35.1925624,0
211,החסידה ,ירושלים,ישראל,"החסידה ,ירושלים,ישראל","החסידה, גילה, ירושלים, נפת ירושלים, מחוז ירושלים, no, ישראל","(31.7333733, 35.181487, 0.0)",31.7333733,35.181487,0
212,החרצית ,ירושלים,ישראל,"החרצית ,ירושלים,ישראל","החרצית, קרית מנחם, ירושלים, נפת ירושלים, מחוז ירושלים, no, ישראל","(31.7577184, 35.1626749, 0.0)",31.7577184,35.1626749,0
213,הטייסים ,ירושלים,ישראל,"הטייסים ,ירושלים,ישראל","הטייסים, סן סימון, ירושלים, נפת ירושלים, מחוז ירושלים, no, ישראל","(31.7661031, 35.2070564, 0.0)",31.7661031,35.2070564,0
214,הטייסים ,ירושלים,ישראל,"הטייסים ,ירושלים,ישראל","הטייסים, סן סימון, ירושלים, נפת ירושלים, מחוז ירושלים, no, ישראל","(31.7661031, 35.2070564, 0.0)",31.7661031,35.2070564,0
215,הירמוך ,ירושלים,ישראל,"הירמוך ,ירושלים,ישראל","הירמוך, נחלאות, ירושלים, נפת ירושלים, מחוז ירושלים, no, ישראל","(31.7845303, 35.2102621, 0.0)",31.7845303,35.2102621,0
216,הכפיר ,ירושלים,ישראל,"הכפיר ,ירושלים,ישראל","הכפיר, הולילנד, מלחה, ירושלים, נפת ירושלים, מחוז ירושלים, no, ישראל","(31.7533859, 35.1867833, 0.0)",31.7533859,35.1867833,0
217,הכפיר ,ירושלים,ישראל,"הכפיר ,ירושלים,ישראל","הכפיר, הולילנד, מלחה, ירושלים, נפת ירושלים, מחוז ירושלים, no, ישראל","(31.7533859, 35.1867833, 0.0)",31.7533859,35.1867833,0
218,הכרפס ,ירושלים,ישראל,"הכרפס ,ירושלים,ישראל","הכרפס, גילה, ירושלים, נפת ירושלים, מחוז ירושלים, no, ישראל","(31.731872, 35.1884794, 0.0)",31.731872,35.1884794,0
219,הלילך ,ירושלים,ישראל,"הלילך ,ירושלים,ישראל","הלילך, עיר גנים, ירושלים, נפת ירושלים, מחוז ירושלים, no, ישראל","(31.7585453, 35.1702296, 0.0)",31.7585453,35.1702296,0
220,המלך ג'ורג' ,ירושלים,ישראל,"המלך ג'ורג' ,ירושלים,ישראל","המלך ג'ורג', טלביה, ירושלים, נפת ירושלים, מחוז ירושלים, no, ישראל","(31.7757195, 35.2172681, 0.0)",31.7757195,35.2172681,0
221,הממציא ,ירושלים,ישראל,"הממציא ,ירושלים,ישראל","הממציא, أم طوبا, רמת רחל, ירושלים, נפת ירושלים, מחוז ירושלים, no, ישראל","(31.7267337, 35.2218182, 0.0)",31.7267337,35.2218182,0
222,המעיין ,ירושלים,ישראל,"המעיין ,ירושלים,ישראל","המעיין, עין כרם, ירושלים, נפת ירושלים, מחוז ירושלים, no, ישראל","(31.7666887, 35.1621265, 0.0)",31.7666887,35.1621265,0
223,המפקד 4,ירושלים,ישראל,"המפקד 4,ירושלים,ישראל","המפקד, أبو طور, ירושלים, נפת ירושלים, מחוז ירושלים, no, ישראל","(31.7673314, 35.2278465, 0.0)",31.7673314,35.2278465,0
224,המרגלית ,ירושלים,ישראל,"המרגלית ,ירושלים,ישראל","המרגלית, גילה, ירושלים, נפת ירושלים, מחוז ירושלים, no, ישראל","(31.739138, 35.1804475, 0.0)",31.739138,35.1804475,0
225,המשורר אצ''ג ,ירושלים,ישראל,"המשורר אצ''ג ,ירושלים,ישראל","המשורר אצ""ג, רמות, ירושלים, נפת ירושלים, מחוז ירושלים, no, ישראל","(31.8258612, 35.1886694, 0.0)",31.8258612,35.1886694,0
226,הנוטרים ,ירושלים,ישראל,"הנוטרים ,ירושלים,ישראל","הנוטרים, הולילנד, גבעת מרדכי, ירושלים, נפת ירושלים, מחוז ירושלים, no, ישראל","(31.7555813, 35.1963234, 0.0)",31.7555813,35.1963234,0
227,הנורית ,ירושלים,ישראל,"הנורית ,ירושלים,ישראל","הנורית, עיר גנים, ירושלים, נפת ירושלים, מחוז ירושלים, no, ישראל","(31.7544586, 35.1688991, 0.0)",31.7544586,35.1688991,0
228,הנצי''ב 4,ירושלים,ישראל,"הנצי''ב 4,ירושלים,ישראל","4, הנציב, נחלאות, ירושלים, נפת ירושלים, מחוז ירושלים, no, ישראל","(31.7813097, 35.2135196, 0.0)",31.7813097,35.2135196,0
229,הנרייטה סולד ,ירושלים,ישראל,"הנרייטה סולד ,ירושלים,ישראל","הנרייטה סולד, קרית היובל, ירושלים, נפת ירושלים, מחוז ירושלים, no, ישראל","(31.7620241, 35.1718011, 0.0)",31.7620241,35.1718011,0
230,הסיגלית 4,ירושלים,ישראל,"הסיגלית 4,ירושלים,ישראל","הסיגלית, شرفات, ירושלים, נפת ירושלים, מחוז ירושלים, no, ישראל","(31.7404396, 35.1958229, 0.0)",31.7404396,35.1958229,0
231,הסייפן ,ירושלים,ישראל,"הסייפן ,ירושלים,ישראל","הסייפן, קרית מנחם, ירושלים, נפת ירושלים, מחוז ירושלים, no, ישראל","(31.7562373, 35.1647525, 0.0)",31.7562373,35.1647525,0
232,העלייה ,ירושלים,ישראל,"העלייה ,ירושלים,ישראל","Voznesensky Cathedral, الشياح, מעלה הזיתים, الطور‎, ירושלים, נפת ירושלים, מחוז ירושלים, no, ישראל","(31.778806799999998, 35.24747360002425, 0.0)",31.7788068,35.2474736,0
233,הפלמ''ח ,ירושלים,ישראל,"הפלמ''ח ,ירושלים,ישראל","הפלמ""ח, סן סימון, ירושלים, נפת ירושלים, מחוז ירושלים, no, ישראל","(31.7641006, 35.2068938, 0.0)",31.7641006,35.2068938,0
234,הפסגה ,ירושלים,ישראל,"הפסגה ,ירושלים,ישראל","הפסגה, שורש, מועצה אזורית מטה יהודה, נפת ירושלים, מחוז ירושלים, no, ישראל","(31.7965255, 35.0658037, 0.0)",31.7965255,35.0658037,0
235,הצדיק מצ'כנוב ,ירושלים,ישראל,"הצדיק מצ'כנוב ,ירושלים,ישראל","הצדיק מצ'כנוב, רמות, ירושלים, נפת ירושלים, מחוז ירושלים, no, ישראל","(31.8155492, 35.1916387, 0.0)",31.8155492,35.1916387,0
236,הצוף ,ירושלים,ישראל,"הצוף ,ירושלים,ישראל","הצוף, شرفات, ירושלים, נפת ירושלים, מחוז ירושלים, no, ישראל","(31.7334454, 35.1979201, 0.0)",31.7334454,35.1979201,0
237,הציונות ,ירושלים,ישראל,"הציונות ,ירושלים,ישראל","הציונות, עיר גנים, ירושלים, נפת ירושלים, מחוז ירושלים, no, ישראל","(31.7536508, 35.1781261, 0.0)",31.7536508,35.1781261,0
238,הציפורן 4,ירושלים,ישראל,"הציפורן 4,ירושלים,ישראל","4, הציפורן, גילה, ירושלים, נפת ירושלים, מחוז ירושלים, no, ישראל","(31.7326092, 35.1909397, 0.0)",31.7326092,35.1909397,0
239,הקבלן ,ירושלים,ישראל,"הקבלן ,ירושלים,ישראל","הקבלן, הר נוף, יפה נוף, כפר שאול, ירושלים, נפת ירושלים, מחוז ירושלים, no, ישראל","(31.7876803, 35.1752327, 0.0)",31.7876803,35.1752327,0
240,הקבלן ,ירושלים,ישראל,"הקבלן ,ירושלים,ישראל","הקבלן, הר נוף, יפה נוף, כפר שאול, ירושלים, נפת ירושלים, מחוז ירושלים, no, ישראל","(31.7876803, 35.1752327, 0.0)",31.7876803,35.1752327,0
241,הרב אברהם רביץ ,ירושלים,ישראל,"הרב אברהם רביץ ,ירושלים,ישראל","הרב אברהם רביץ, הרב רביץ, פסגת זאב צפון, بيت حنينا, ירושלים, נפת ירושלים, מחוז ירושלים, no, ישראל","(31.836228, 35.239545, 0.0)",31.836228,35.239545,0
243,הרב אליעזר ברגמן ,ירושלים,ישראל,"הרב אליעזר ברגמן ,ירושלים,ישראל","הרב אליעזר ברגמן, רמת דניה, ירושלים, נפת ירושלים, מחוז ירושלים, no, ישראל","(31.7685803, 35.1817799, 0.0)",31.7685803,35.1817799,0
246,הרב בלוי ,ירושלים,ישראל,"הרב בלוי ,ירושלים,ישראל","הרב בלוי, סנהדריה, ירושלים, נפת ירושלים, מחוז ירושלים, no, ישראל","(31.7980192, 35.2199483, 0.0)",31.7980192,35.2199483,0
247,הרב דוד זריצקי ,ירושלים,ישראל,"הרב דוד זריצקי ,ירושלים,ישראל","הרב דוד זריצקי, רמות, ירושלים, נפת ירושלים, מחוז ירושלים, no, ישראל","(31.8229538, 35.194198, 0.0)",31.8229538,35.194198,0
249,הרב חיים הלר ,ירושלים,ישראל,"הרב חיים הלר ,ירושלים,ישראל","הרב חיים הלר, גבעת מרדכי, ירושלים, נפת ירושלים, מחוז ירושלים, no, ישראל","(31.7656794, 35.1942881, 0.0)",31.7656794,35.1942881,0
250,הרב חיים חביב ,ירושלים,ישראל,"הרב חיים חביב ,ירושלים,ישראל","הרב חיים חביב, קרית היובל, ירושלים, נפת ירושלים, מחוז ירושלים, no, ישראל","(31.7662177, 35.1745169, 0.0)",31.7662177,35.1745169,0
253,הרב יוסף חיים שרים ,ירושלים,ישראל,"הרב יוסף חיים שרים ,ירושלים,ישראל","הרב יוסף חיים שרים, הולילנד, רמת דניה, ירושלים, נפת ירושלים, מחוז ירושלים, no, ישראל","(31.7583739, 35.1826345, 0.0)",31.7583739,35.1826345,0
254,הרב יעקב מוצפי ,ירושלים,ישראל,"הרב יעקב מוצפי ,ירושלים,ישראל","הרב יעקב מוצפי, רמת שלמה, ירושלים, נפת ירושלים, מחוז ירושלים, no, ישראל","(31.8156012, 35.2164145, 0.0)",31.8156012,35.2164145,0
256,הרב יצחק נסים ,ירושלים,ישראל,"הרב יצחק נסים ,ירושלים,ישראל","הרב יצחק ניסים, أم طوبا, רמת רחל, ירושלים, נפת ירושלים, מחוז ירושלים, no, ישראל","(31.724799, 35.2199085, 0.0)",31.724799,35.2199085,0
258,הרב משה זאב פלדמן ,ירושלים,ישראל,"הרב משה זאב פלדמן ,ירושלים,ישראל","הרב משה זאב פלדמן, קרית בעלז, מקור ברוך, ירושלים, נפת ירושלים, מחוז ירושלים, no, ישראל","(31.7914622, 35.2117716, 0.0)",31.7914622,35.2117716,0
259,הרב ניסנבוים ,ירושלים,ישראל,"הרב ניסנבוים ,ירושלים,ישראל","הרב ניסנבוים, קריית מטרסדורף, גבעת שאול, ירושלים, נפת ירושלים, מחוז ירושלים, no, ישראל","(31.7898937, 35.1975614, 0.0)",31.7898937,35.1975614,0
260,הרב סורוצקין ,ירושלים,ישראל,"הרב סורוצקין ,ירושלים,ישראל","הרב סורוצקין, קרית בעלז, רוממה, ירושלים, נפת ירושלים, מחוז ירושלים, no, ישראל","(31.7968544, 35.2058733, 0.0)",31.7968544,35.2058733,0
261,הרב סורוצקין 4,ירושלים,ישראל,"הרב סורוצקין 4,ירושלים,ישראל","4, הרב סורוצקין, קרית בעלז, רוממה, ירושלים, נפת ירושלים, מחוז ירושלים, no, ישראל","(31.7944067, 35.2035588, 0.0)",31.7944067,35.2035588,0
262,הרב עדני ,ירושלים,ישראל,"הרב עדני ,ירושלים,ישראל","הרב עדני, בית ישראל, ירושלים, נפת ירושלים, מחוז ירושלים, no, ישראל","(31.788243, 35.2220762, 0.0)",31.788243,35.2220762,0
263,הרב עוזי קלכהיים ,ירושלים,ישראל,"הרב עוזי קלכהיים ,ירושלים,ישראל","הרב עוזי קלכהיים, רמת שלמה, ירושלים, נפת ירושלים, מחוז ירושלים, no, ישראל","(31.8104555, 35.2221732, 0.0)",31.8104555,35.2221732,0
264,הרב פניז'ל ,ירושלים,ישראל,"הרב פניז'ל ,ירושלים,ישראל","הרב פניז'ל, קרית קמניץ, ירושלים, נפת ירושלים, מחוז ירושלים, no, ישראל","(31.843102, 35.2447817, 0.0)",31.843102,35.2447817,0
265,הרב פתאל ,ירושלים,ישראל,"הרב פתאל ,ירושלים,ישראל","הרב פתאל, רמת שלמה, ירושלים, נפת ירושלים, מחוז ירושלים, no, ישראל","(31.814881, 35.2162857, 0.0)",31.814881,35.2162857,0
266,הרב צבי יהודה ,ירושלים,ישראל,"הרב צבי יהודה ,ירושלים,ישראל","הרב צבי יהודה, קרית משה, ירושלים, נפת ירושלים, מחוז ירושלים, no, ישראל","(31.7866123, 35.1989229, 0.0)",31.7866123,35.1989229,0
267,הרב רפאל קצנלבוגן ,ירושלים,ישראל,"הרב רפאל קצנלבוגן ,ירושלים,ישראל","הרב רפאל קצנלבוגן, הר נוף, יפה נוף, כפר שאול, ירושלים, נפת ירושלים, מחוז ירושלים, no, ישראל","(31.7863917, 35.1794948, 0.0)",31.7863917,35.1794948,0
268,הרב רפאל קצנלבוגן ,ירושלים,ישראל,"הרב רפאל קצנלבוגן ,ירושלים,ישראל","הרב רפאל קצנלבוגן, הר נוף, יפה נוף, כפר שאול, ירושלים, נפת ירושלים, מחוז ירושלים, no, ישראל","(31.7863917, 35.1794948, 0.0)",31.7863917,35.1794948,0
269,הרב ש. שאולזון ,ירושלים,ישראל,"הרב ש. שאולזון ,ירושלים,ישראל","הרב שאולזון, הר נוף, יפה נוף, כפר שאול, ירושלים, נפת ירושלים, מחוז ירושלים, no, ישראל","(31.7905803, 35.1751094, 0.0)",31.7905803,35.1751094,0
270,הרב ש. שאולזון 4,ירושלים,ישראל,"הרב ש. שאולזון 4,ירושלים,ישראל","4, הרב שאולזון, הר נוף, יפה נוף, כפר שאול, ירושלים, נפת ירושלים, מחוז ירושלים, no, ישראל","(31.790837, 35.1759751, 0.0)",31.790837,35.1759751,0
272,הרב שמעון אגסי ,ירושלים,ישראל,"הרב שמעון אגסי ,ירושלים,ישראל","הרב שמעון אגסי, הר נוף, יפה נוף, כפר שאול, ירושלים, נפת ירושלים, מחוז ירושלים, no, ישראל","(31.7822339, 35.1762719, 0.0)",31.7822339,35.1762719,0
273,הרב שמעון אגסי 4,ירושלים,ישראל,"הרב שמעון אגסי 4,ירושלים,ישראל","4, הרב שמעון אגסי, הר נוף, יפה נוף, כפר שאול, ירושלים, נפת ירושלים, מחוז ירושלים, no, ישראל","(31.7861721, 35.1750097, 0.0)",31.7861721,35.1750097,0
274,הרוזמרין ,ירושלים,ישראל,"הרוזמרין ,ירושלים,ישראל","הרוזמרין, شرفات, ירושלים, נפת ירושלים, מחוז ירושלים, no, ישראל","(31.7313457, 35.2059968, 0.0)",31.7313457,35.2059968,0
275,הרכבים ,ירושלים,ישראל,"הרכבים ,ירושלים,ישראל","הרכבים, מקור חיים, ירושלים, נפת ירושלים, מחוז ירושלים, no, ישראל","(31.7531657, 35.2128262, 0.0)",31.7531657,35.2128262,0
276,הרפובליקה הדומיניקנית 4,ירושלים,ישראל,"הרפובליקה הדומיניקנית 4,ירושלים,ישראל","4, הרפובליקה הדומיניקנית, קרית מנחם, ירושלים, נפת ירושלים, מחוז ירושלים, no, ישראל","(31.7558731, 35.1664413, 0.0)",31.7558731,35.1664413,0
277,הרקמה ,ירושלים,ישראל,"הרקמה ,ירושלים,ישראל","הרקמה, קריית מטרסדורף, רוממה, ירושלים, נפת ירושלים, מחוז ירושלים, no, ישראל","(31.7915025, 35.2018756, 0.0)",31.7915025,35.2018756,0
278,השומר 4,ירושלים,ישראל,"השומר 4,ירושלים,ישראל","4, השומר, הולילנד, גבעת מרדכי, ירושלים, נפת ירושלים, מחוז ירושלים, no, ישראל","(31.7548938, 35.196902, 0.0)",31.7548938,35.196902,0
279,השישה עשר ,ירושלים,ישראל,"השישה עשר ,ירושלים,ישראל","השישה עשר, פסגת זאב מרכז, פסגת זאב, ירושלים, נפת ירושלים, מחוז ירושלים, no, ישראל","(31.8275452, 35.2406233, 0.0)",31.8275452,35.2406233,0
280,השליחים ,ירושלים,ישראל,"השליחים ,ירושלים,ישראל","طريق الرسل, הרובע הנוצרי, העיר העתיקה, ירושלים, נפת ירושלים, מחוז ירושלים, no, ישראל","(31.779661, 35.2292483, 0.0)",31.779661,35.2292483,0
281,השלכת ,ירושלים,ישראל,"השלכת ,ירושלים,ישראל","השלכת, עיר גנים, ירושלים, נפת ירושלים, מחוז ירושלים, no, ישראל","(31.756461, 35.1715385, 0.0)",31.756461,35.1715385,0
282,התומר ,ירושלים,ישראל,"התומר ,ירושלים,ישראל","התומר, יפה נוף, כפר שאול, ירושלים, נפת ירושלים, מחוז ירושלים, no, ישראל","(31.7788042, 35.1862029, 0.0)",31.7788042,35.1862029,0
283,התעשייה ,ירושלים,ישראל,"התעשייה ,ירושלים,ישראל","התעשיה, תלפיות, רמת רחל, ירושלים, נפת ירושלים, מחוז ירושלים, no, ישראל","(31.7504932, 35.215772, 0.0)",31.7504932,35.215772,0
284,ואדי אל ג'וז ,ירושלים,ישראל,"ואדי אל ג'וז ,ירושלים,ישראל","ואדי אל-ג'וז, קרית מנחם בגין, الشيخ جراح, ירושלים, נפת ירושלים, מחוז ירושלים, no, ישראל","(31.7952229, 35.2361478, 0.0)",31.7952229,35.2361478,0
285,ואדי אל ג'וז 4,ירושלים,ישראל,"ואדי אל ג'וז 4,ירושלים,ישראל","ואדי אל-ג'וז, קרית מנחם בגין, الشيخ جراح, ירושלים, נפת ירושלים, מחוז ירושלים, no, ישראל","(31.7952229, 35.2361478, 0.0)",31.7952229,35.2361478,0
289,ועד ארבע ארצות ,ירושלים,ישראל,"ועד ארבע ארצות ,ירושלים,ישראל","ועד ארבע ארצות, רמות, ירושלים, נפת ירושלים, מחוז ירושלים, no, ישראל","(31.8188455, 35.1967051, 0.0)",31.8188455,35.1967051,0
290,זאב ז'בוטינסקי ,ירושלים,ישראל,"זאב ז'בוטינסקי ,ירושלים,ישראל","קבר זאב ויוענה ז'בוטינסקי, דרך ישראל שוכמן, קרית היובל, ירושלים, נפת ירושלים, מחוז ירושלים, no, ישראל","(31.77368, 35.1789765, 0.0)",31.77368,35.1789765,0
291,זילברשטיין ,ירושלים,ישראל,"זילברשטיין ,ירושלים,ישראל","זילברשטיין, פסגת זאב מרכז, פסגת זאב, ירושלים, נפת ירושלים, מחוז ירושלים, no, ישראל","(31.8338467, 35.2443613, 0.0)",31.8338467,35.2443613,0
292,זלמן ארן ,ירושלים,ישראל,"זלמן ארן ,ירושלים,ישראל","זלמן ארן, שדרות ירושלים, נווה פנחס, חולון, נפת תל אביב, מחוז תל אביב, no, ישראל","(32.0092045, 34.79461007507564, 0.0)",32.0092045,34.79461008,0
293,זעקוקה ,ירושלים,ישראל,"זעקוקה ,ירושלים,ישראל","אלמדינה אלמנורה/זעקוקה, אלמדינה אלמנוורה, صور باهر, רמת רחל, ירושלים, נפת ירושלים, מחוז ירושלים, no, ישראל","(31.737154, 35.236632, 0.0)",31.737154,35.236632,0
294,ח'אלד אבן אל וליד ,ירושלים,ישראל,"ח'אלד אבן אל וליד ,ירושלים,ישראל","ח'אלד בן אל-וליד, קרית מנחם בגין, وادي الجوز, ירושלים, נפת ירושלים, מחוז ירושלים, no, ישראל","(31.7897938, 35.2328752, 0.0)",31.7897938,35.2328752,0
298,חארת א סעידיה ,ירושלים,ישראל,"חארת א סעידיה ,ירושלים,ישראל","شارع السعدية, הרובע המוסלמי, העיר העתיקה, ירושלים, נפת ירושלים, מחוז ירושלים, no, ישראל","(31.7822399, 35.2327607, 0.0)",31.7822399,35.2327607,0
299,חארת א סעידיה 4,ירושלים,ישראל,"חארת א סעידיה 4,ירושלים,ישראל","شارع السعدية, הרובע המוסלמי, העיר העתיקה, ירושלים, נפת ירושלים, מחוז ירושלים, no, ישראל","(31.7822399, 35.2327607, 0.0)",31.7822399,35.2327607,0
301,חבקוק ,ירושלים,ישראל,"חבקוק ,ירושלים,ישראל","חבקוק, מאה שערים, ירושלים, נפת ירושלים, מחוז ירושלים, no, ישראל","(31.7886538, 35.220548, 0.0)",31.7886538,35.220548,0
302,חגי ,ירושלים,ישראל,"חגי ,ירושלים,ישראל","חגי, גאולה, ירושלים, נפת ירושלים, מחוז ירושלים, no, ישראל","(31.7891989, 35.2176051, 0.0)",31.7891989,35.2176051,0
304,חזון אי''ש ,ירושלים,ישראל,"חזון אי''ש ,ירושלים,ישראל","חזון אי""ש, רמת שלמה, ירושלים, נפת ירושלים, מחוז ירושלים, no, ישראל","(31.8077513, 35.2228027, 0.0)",31.8077513,35.2228027,0
305,חזנוביץ' ,ירושלים,ישראל,"חזנוביץ' ,ירושלים,ישראל","חזונוביץ, מאה שערים, ירושלים, נפת ירושלים, מחוז ירושלים, no, ישראל","(31.7857513, 35.220183, 0.0)",31.7857513,35.220183,0
306,חזקיהו המלך ,ירושלים,ישראל,"חזקיהו המלך ,ירושלים,ישראל","חזקיהו המלך, סן סימון, ירושלים, נפת ירושלים, מחוז ירושלים, no, ישראל","(31.7619022, 35.2112568, 0.0)",31.7619022,35.2112568,0
307,חיי אדם ,ירושלים,ישראל,"חיי אדם ,ירושלים,ישראל","חיי אדם, מאה שערים, ירושלים, נפת ירושלים, מחוז ירושלים, no, ישראל","(31.7861914, 35.219172, 0.0)",31.7861914,35.219172,0
310,חיים עוזר ,ירושלים,ישראל,"חיים עוזר ,ירושלים,ישראל","חיים עוזר, בית ישראל, ירושלים, נפת ירושלים, מחוז ירושלים, no, ישראל","(31.7897319, 35.2243221, 0.0)",31.7897319,35.2243221,0
311,חיל האוויר ,ירושלים,ישראל,"חיל האוויר ,ירושלים,ישראל","חיל האוויר, פסגת זאב צפון, פסגת זאב, ירושלים, נפת ירושלים, מחוז ירושלים, no, ישראל","(31.8306366, 35.2397625, 0.0)",31.8306366,35.2397625,0
313,חנה ,ירושלים,ישראל,"חנה ,ירושלים,ישראל","חנה, קרית בעלז, מקור ברוך, ירושלים, נפת ירושלים, מחוז ירושלים, no, ישראל","(31.7939663, 35.212175, 0.0)",31.7939663,35.212175,0
314,חרל''פ ,ירושלים,ישראל,"חרל''פ ,ירושלים,ישראל","חרל""פ, קרית שמואל, ירושלים, נפת ירושלים, מחוז ירושלים, no, ישראל","(31.7691623, 35.2117984, 0.0)",31.7691623,35.2117984,0
315,טבריה ,ירושלים,ישראל,"טבריה ,ירושלים,ישראל","טבריה, שערי חסד, ירושלים, נפת ירושלים, מחוז ירושלים, no, ישראל","(31.7801728, 35.2118722, 0.0)",31.7801728,35.2118722,0
317,טשרניחובסקי ,ירושלים,ישראל,"טשרניחובסקי ,ירושלים,ישראל","טשרניחובסקי, קרית שמואל, ירושלים, נפת ירושלים, מחוז ירושלים, no, ישראל","(31.7692434, 35.208719, 0.0)",31.7692434,35.208719,0
318,יד חרוצים 4,ירושלים,ישראל,"יד חרוצים 4,ירושלים,ישראל","4, יד חרוצים, תלפיות, ירושלים, נפת ירושלים, מחוז ירושלים, no, ישראל","(31.7545045, 35.2172163, 0.0)",31.7545045,35.2172163,0
321,יהודה המכבי ,ירושלים,ישראל,"יהודה המכבי ,ירושלים,ישראל","יהודה המכבי, מקור ברוך, ירושלים, נפת ירושלים, מחוז ירושלים, no, ישראל","(31.7897967, 35.2095805, 0.0)",31.7897967,35.2095805,0
322,יהודה קרני ,ירושלים,ישראל,"יהודה קרני ,ירושלים,ישראל","יהודה קרני, רמות ב', ירושלים, נפת ירושלים, מחוז ירושלים, no, ישראל","(31.8105317, 35.1979932, 0.0)",31.8105317,35.1979932,0
323,יהויריב ,ירושלים,ישראל,"יהויריב ,ירושלים,ישראל","יהויריב, מעלות דפנה, ירושלים, נפת ירושלים, מחוז ירושלים, no, ישראל","(31.7921715, 35.2241985, 0.0)",31.7921715,35.2241985,0
324,יהלום ,ירושלים,ישראל,"יהלום ,ירושלים,ישראל","יהלום, גילה, ירושלים, נפת ירושלים, מחוז ירושלים, no, ישראל","(31.729216, 35.1922059, 0.0)",31.729216,35.1922059,0
325,יואל משה סלומון ,ירושלים,ישראל,"יואל משה סלומון ,ירושלים,ישראל","יואל משה סלומון, מאה שערים, ירושלים, נפת ירושלים, מחוז ירושלים, no, ישראל","(31.7814248, 35.2197573, 0.0)",31.7814248,35.2197573,0
326,יום טוב אלגזי ,ירושלים,ישראל,"יום טוב אלגזי ,ירושלים,ישראל","יום טוב אלגזי, גאולה, ירושלים, נפת ירושלים, מחוז ירושלים, no, ישראל","(31.7869546, 35.2143681, 0.0)",31.7869546,35.2143681,0
328,יוסף נדבה ,ירושלים,ישראל,"יוסף נדבה ,ירושלים,ישראל","יוסף נדבה, פסגת זאב מזרח, פסגת זאב, ירושלים, נפת ירושלים, מחוז ירושלים, no, ישראל","(31.8163484, 35.2505065, 0.0)",31.8163484,35.2505065,0
330,יוסף צבי הערץ ,ירושלים,ישראל,"יוסף צבי הערץ ,ירושלים,ישראל","יוסף צבי הערץ, רמות א', ירושלים, נפת ירושלים, מחוז ירושלים, no, ישראל","(31.8172571, 35.2036852, 0.0)",31.8172571,35.2036852,0
331,יחזקאל 4,ירושלים,ישראל,"יחזקאל 4,ירושלים,ישראל","4, יחזקאל, גאולה, ירושלים, נפת ירושלים, מחוז ירושלים, no, ישראל","(31.7886017, 35.2186185, 0.0)",31.7886017,35.2186185,0
332,ים סוף ,ירושלים,ישראל,"ים סוף ,ירושלים,ישראל","ים סוף, רמת אשכול, ירושלים, נפת ירושלים, מחוז ירושלים, no, ישראל","(31.8008696, 35.2223962, 0.0)",31.8008696,35.2223962,0
333,יעל ,ירושלים,ישראל,"יעל ,ירושלים,ישראל","יעל, בקעה, ירושלים, נפת ירושלים, מחוז ירושלים, no, ישראל","(31.7612831, 35.2211742, 0.0)",31.7612831,35.2211742,0
334,יעקב אלעזר ,ירושלים,ישראל,"יעקב אלעזר ,ירושלים,ישראל","יעקב אלעזר, רמות א', ירושלים, נפת ירושלים, מחוז ירושלים, no, ישראל","(31.8139472, 35.2083547, 0.0)",31.8139472,35.2083547,0
336,יעקב סימן טוב ,ירושלים,ישראל,"יעקב סימן טוב ,ירושלים,ישראל","יעקב סימן טוב, רמת בית הכרם, ירושלים, נפת ירושלים, מחוז ירושלים, no, ישראל","(31.7716306, 35.189681, 0.0)",31.7716306,35.189681,0
337,יפה רום ,ירושלים,ישראל,"יפה רום ,ירושלים,ישראל","יפה רום, גילה, ירושלים, נפת ירושלים, מחוז ירושלים, no, ישראל","(31.7345795, 35.1885294, 0.0)",31.7345795,35.1885294,0
338,יפה רום ,ירושלים,ישראל,"יפה רום ,ירושלים,ישראל","יפה רום, גילה, ירושלים, נפת ירושלים, מחוז ירושלים, no, ישראל","(31.7345795, 35.1885294, 0.0)",31.7345795,35.1885294,0
339,יפו ,ירושלים,ישראל,"יפו ,ירושלים,ישראל","יפו, מקור ברוך, ירושלים, נפת ירושלים, מחוז ירושלים, no, ישראל","(31.7877505, 35.2073464, 0.0)",31.7877505,35.2073464,0
340,יפו ,ירושלים,ישראל,"יפו ,ירושלים,ישראל","יפו, מקור ברוך, ירושלים, נפת ירושלים, מחוז ירושלים, no, ישראל","(31.7877505, 35.2073464, 0.0)",31.7877505,35.2073464,0
341,יפו 4,ירושלים,ישראל,"יפו 4,ירושלים,ישראל","יפו, מקור ברוך, ירושלים, נפת ירושלים, מחוז ירושלים, no, ישראל","(31.7862429, 35.2109205, 0.0)",31.7862429,35.2109205,0
342,יצהר ,ירושלים,ישראל,"יצהר ,ירושלים,ישראל","יצהר, شرفات, ירושלים, נפת ירושלים, מחוז ירושלים, no, ישראל","(31.73919, 35.1886239, 0.0)",31.73919,35.1886239,0
343,יצחק שדה ,ירושלים,ישראל,"יצחק שדה ,ירושלים,ישראל","יצחק שדה, הולילנד, קטמונים (גוננים), ירושלים, נפת ירושלים, מחוז ירושלים, no, ישראל","(31.7541632, 35.1972345, 0.0)",31.7541632,35.1972345,0
344,ירמיהו 4,ירושלים,ישראל,"ירמיהו 4,ירושלים,ישראל","4, ירמיהו, קרית בעלז, מקור ברוך, ירושלים, נפת ירושלים, מחוז ירושלים, no, ישראל","(31.793695, 35.2149037, 0.0)",31.793695,35.2149037,0
346,ישא ברכה ,ירושלים,ישראל,"ישא ברכה ,ירושלים,ישראל","ישא ברכה, בית ישראל, ירושלים, נפת ירושלים, מחוז ירושלים, no, ישראל","(31.7906018, 35.2204478, 0.0)",31.7906018,35.2204478,0
347,ישעיהו ,ירושלים,ישראל,"ישעיהו ,ירושלים,ישראל","ישעיהו, גאולה, ירושלים, נפת ירושלים, מחוז ירושלים, no, ישראל","(31.787016, 35.2179658, 0.0)",31.787016,35.2179658,0
348,ישראל אלדד ,ירושלים,ישראל,"ישראל אלדד ,ירושלים,ישראל","ישראל אלדד, תלפיות, רמת רחל, ירושלים, נפת ירושלים, מחוז ירושלים, no, ישראל","(31.7522541, 35.2256826, 0.0)",31.7522541,35.2256826,0
350,כנפי נשרים 4,ירושלים,ישראל,"כנפי נשרים 4,ירושלים,ישראל","כנפי נשרים, גבעת שאול, כפר שאול, ירושלים, נפת ירושלים, מחוז ירושלים, no, ישראל","(31.7875754, 35.1896778, 0.0)",31.7875754,35.1896778,0
351,כף החיים ,ירושלים,ישראל,"כף החיים ,ירושלים,ישראל","כף החיים, נוה יעקב, ירושלים, נפת ירושלים, מחוז ירושלים, no, ישראל","(31.8442288, 35.2412299, 0.0)",31.8442288,35.2412299,0
352,כרמון ,ירושלים,ישראל,"כרמון ,ירושלים,ישראל","כרמון, בית הכרם, כפר שאול, ירושלים, נפת ירושלים, מחוז ירושלים, no, ישראל","(31.7809772, 35.1934228, 0.0)",31.7809772,35.1934228,0
353,כרמיה ,ירושלים,ישראל,"כרמיה ,ירושלים,ישראל","יצחק א. כרמיה, המושבת הגרמנית, ירושלים, נפת ירושלים, מחוז ירושלים, no, ישראל","(31.7654487, 35.2231739, 0.0)",31.7654487,35.2231739,0
354,לבוש מרדכי ,ירושלים,ישראל,"לבוש מרדכי ,ירושלים,ישראל","לבוש מרדכי, גאולה, ירושלים, נפת ירושלים, מחוז ירושלים, no, ישראל","(31.7885287, 35.2179963, 0.0)",31.7885287,35.2179963,0
355,לוחמי הגטאות ,ירושלים,ישראל,"לוחמי הגטאות ,ירושלים,ישראל","לוחמי הגטאות, צמרת הבירה, ירושלים, נפת ירושלים, מחוז ירושלים, no, ישראל","(31.8004679, 35.2419819, 0.0)",31.8004679,35.2419819,0
356,לח''י ,ירושלים,ישראל,"לח''י ,ירושלים,ישראל","לח""י, קרית מנחם בגין, הגבעה הצרפתית, ירושלים, נפת ירושלים, מחוז ירושלים, no, ישראל","(31.8000585, 35.2362597, 0.0)",31.8000585,35.2362597,0
357,ליבנה 4,ירושלים,ישראל,"ליבנה 4,ירושלים,ישראל","4, ליבנה, סנהדריה, ירושלים, נפת ירושלים, מחוז ירושלים, no, ישראל","(31.7999016, 35.2210269, 0.0)",31.7999016,35.2210269,0
358,לייב דיין ,ירושלים,ישראל,"לייב דיין ,ירושלים,ישראל","לייב דיין, בית ישראל, ירושלים, נפת ירושלים, מחוז ירושלים, no, ישראל","(31.7882516, 35.222524, 0.0)",31.7882516,35.222524,0
359,לייב יפה ,ירושלים,ישראל,"לייב יפה ,ירושלים,ישראל","לייב יפה, תלפיות, רמת רחל, ירושלים, נפת ירושלים, מחוז ירושלים, no, ישראל","(31.7444379, 35.2207819, 0.0)",31.7444379,35.2207819,0
360,ליכטנשטיין ,ירושלים,ישראל,"ליכטנשטיין ,ירושלים,ישראל","ליכטנשטיין, חומת שמואל, ירושלים, נפת ירושלים, מחוז ירושלים, no, ישראל","(31.7255662, 35.2250101, 0.0)",31.7255662,35.2250101,0
361,מאה שערים ,ירושלים,ישראל,"מאה שערים ,ירושלים,ישראל","מאה שערים, ירושלים, נפת ירושלים, מחוז ירושלים, 91010, ישראל","(31.7865608, 35.2208052, 0.0)",31.7865608,35.2208052,0
362,מאיר גרשון ,ירושלים,ישראל,"מאיר גרשון ,ירושלים,ישראל","מאיר גרשון, פסגת זאב מזרח, פסגת זאב, ירושלים, נפת ירושלים, מחוז ירושלים, no, ישראל","(31.8198071, 35.2494631, 0.0)",31.8198071,35.2494631,0
363,מאיר נקר ,ירושלים,ישראל,"מאיר נקר ,ירושלים,ישראל","מאיר נקר, נוף ציון, ירושלים, נפת ירושלים, מחוז ירושלים, no, ישראל","(31.7516156, 35.2410486, 0.0)",31.7516156,35.2410486,0
364,מבוא דב בר יקר ,ירושלים,ישראל,"מבוא דב בר יקר ,ירושלים,ישראל","מבוא דב בר יקר, קרית קמניץ, ירושלים, נפת ירושלים, מחוז ירושלים, no, ישראל","(31.8409337, 35.245432, 0.0)",31.8409337,35.245432,0
366,מבוא הברכה ,ירושלים,ישראל,"מבוא הברכה ,ירושלים,ישראל","מבוא הברכה, רמת שלמה, ירושלים, נפת ירושלים, מחוז ירושלים, no, ישראל","(31.8110337, 35.2182453, 0.0)",31.8110337,35.2182453,0
367,מבוא הצרי ,ירושלים,ישראל,"מבוא הצרי ,ירושלים,ישראל","מבוא הצרי, גבעת המטוס, شرفات, ירושלים, נפת ירושלים, מחוז ירושלים, no, ישראל","(31.7330519, 35.2012798, 0.0)",31.7330519,35.2012798,0
368,מבוא יטבתה ,ירושלים,ישראל,"מבוא יטבתה ,ירושלים,ישראל","מבוא יטבתה, רמת אשכול, ירושלים, נפת ירושלים, מחוז ירושלים, no, ישראל","(31.8000068, 35.2225299, 0.0)",31.8000068,35.2225299,0
370,מדבר סיני ,ירושלים,ישראל,"מדבר סיני ,ירושלים,ישראל","מדבר סיני, קרית מנחם בגין, גבעת המבתר, ירושלים, נפת ירושלים, מחוז ירושלים, no, ישראל","(31.8022955, 35.2310327, 0.0)",31.8022955,35.2310327,0
371,מודיעין ,ירושלים,ישראל,"מודיעין ,ירושלים,ישראל","מודיעין, מקור ברוך, ירושלים, נפת ירושלים, מחוז ירושלים, no, ישראל","(31.7892367, 35.2131458, 0.0)",31.7892367,35.2131458,0
372,מזל גדי ,ירושלים,ישראל,"מזל גדי ,ירושלים,ישראל","מזל גדי, פסגת זאב צפון, بيت حنينا, ירושלים, נפת ירושלים, מחוז ירושלים, no, ישראל","(31.8362639, 35.2329956, 0.0)",31.8362639,35.2329956,0
373,מזל תאומים ,ירושלים,ישראל,"מזל תאומים ,ירושלים,ישראל","מזל תאומים, פסגת זאב צפון, بيت حنينا, ירושלים, נפת ירושלים, מחוז ירושלים, no, ישראל","(31.8375521, 35.2331594, 0.0)",31.8375521,35.2331594,0
374,מח''ל ,ירושלים,ישראל,"מח''ל ,ירושלים,ישראל","מח""ל, קרית מנחם בגין, الشيخ جراح, ירושלים, נפת ירושלים, מחוז ירושלים, no, ישראל","(31.796279, 35.230068, 0.0)",31.796279,35.230068,0
376,מחנה יהודה ,ירושלים,ישראל,"מחנה יהודה ,ירושלים,ישראל","מחנה יהודה, נחלאות, ירושלים, נפת ירושלים, מחוז ירושלים, no, ישראל","(31.7848864, 35.2123891, 0.0)",31.7848864,35.2123891,0
378,מיכל ,ירושלים,ישראל,"מיכל ,ירושלים,ישראל","מיכל, סנהדריה, ירושלים, נפת ירושלים, מחוז ירושלים, no, ישראל","(31.7977453, 35.2213899, 0.0)",31.7977453,35.2213899,0
379,מלאכי ,ירושלים,ישראל,"מלאכי ,ירושלים,ישראל","מלאכי, גאולה, ירושלים, נפת ירושלים, מחוז ירושלים, no, ישראל","(31.7907435, 35.2171116, 0.0)",31.7907435,35.2171116,0
380,מלכי ישראל ,ירושלים,ישראל,"מלכי ישראל ,ירושלים,ישראל","מלכי ישראל, קרית בעלז, מקור ברוך, ירושלים, נפת ירושלים, מחוז ירושלים, no, ישראל","(31.7907931, 35.2102031, 0.0)",31.7907931,35.2102031,0
381,מנדלי מוכר ספרים ,ירושלים,ישראל,"מנדלי מוכר ספרים ,ירושלים,ישראל","מנדלי מוכר ספרים, טלביה, ירושלים, נפת ירושלים, מחוז ירושלים, no, ישראל","(31.7719599, 35.2202238, 0.0)",31.7719599,35.2202238,0
382,מנדלי מוכר ספרים 4,ירושלים,ישראל,"מנדלי מוכר ספרים 4,ירושלים,ישראל","4, מנדלי מוכר ספרים, טלביה, ירושלים, נפת ירושלים, מחוז ירושלים, no, ישראל","(31.7724702, 35.2204544, 0.0)",31.7724702,35.2204544,0
383,מנורה ,ירושלים,ישראל,"מנורה ,ירושלים,ישראל","מנורה, שערי חסד, ירושלים, נפת ירושלים, מחוז ירושלים, no, ישראל","(31.7796569, 35.2125443, 0.0)",31.7796569,35.2125443,0
384,מנחם ,ירושלים,ישראל,"מנחם ,ירושלים,ישראל","מנחם, מקור ברוך, ירושלים, נפת ירושלים, מחוז ירושלים, no, ישראל","(31.7883541, 35.2134944, 0.0)",31.7883541,35.2134944,0
385,מנחת יצחק ,ירושלים,ישראל,"מנחת יצחק ,ירושלים,ישראל","מנחת יצחק, קרית בעלז, הר חוצבים, ירושלים, נפת ירושלים, מחוז ירושלים, no, ישראל","(31.795799, 35.2092241, 0.0)",31.795799,35.2092241,0
386,מסג'ד עומר ,ירושלים,ישראל,"מסג'ד עומר ,ירושלים,ישראל","מסגד עומר, סנט הלנה, הרובע הנוצרי, העיר העתיקה, ירושלים, נפת ירושלים, מחוז ירושלים, no, ישראל","(31.7778859, 35.23000716586898, 0.0)",31.7778859,35.23000717,0
387,מעגלות הרב פרדס ,ירושלים,ישראל,"מעגלות הרב פרדס ,ירושלים,ישראל","מעגלות הרב פרדס, נוה יעקב, ירושלים, נפת ירושלים, מחוז ירושלים, no, ישראל","(31.8444513, 35.2402846, 0.0)",31.8444513,35.2402846,0
388,מעגלות הרב פרדס ,ירושלים,ישראל,"מעגלות הרב פרדס ,ירושלים,ישראל","מעגלות הרב פרדס, נוה יעקב, ירושלים, נפת ירושלים, מחוז ירושלים, no, ישראל","(31.8444513, 35.2402846, 0.0)",31.8444513,35.2402846,0
389,מעגלי הרי''ם לוין ,ירושלים,ישראל,"מעגלי הרי''ם לוין ,ירושלים,ישראל","מעגלי הרי''ם לוין, סנהדריה מורחבת, ירושלים, נפת ירושלים, מחוז ירושלים, no, ישראל","(31.8033993, 35.2179047, 0.0)",31.8033993,35.2179047,0
390,מעגלי הרי''ם לוין ,ירושלים,ישראל,"מעגלי הרי''ם לוין ,ירושלים,ישראל","מעגלי הרי''ם לוין, סנהדריה מורחבת, ירושלים, נפת ירושלים, מחוז ירושלים, no, ישראל","(31.8033993, 35.2179047, 0.0)",31.8033993,35.2179047,0
391,מעגלי הרי''ם לוין 4,ירושלים,ישראל,"מעגלי הרי''ם לוין 4,ירושלים,ישראל","מעגלי הרי''ם לוין, סנהדריה מורחבת, ירושלים, נפת ירושלים, מחוז ירושלים, no, ישראל","(31.8033993, 35.2179047, 0.0)",31.8033993,35.2179047,0
392,מעגלי יבנה ,ירושלים,ישראל,"מעגלי יבנה ,ירושלים,ישראל","מעגלי יבנה, מקור חיים, ירושלים, נפת ירושלים, מחוז ירושלים, no, ישראל","(31.7570536, 35.2111598, 0.0)",31.7570536,35.2111598,0
393,מעלה האכסניה ,ירושלים,ישראל,"מעלה האכסניה ,ירושלים,ישראל","מעלה האכסניה, מוסקוביה, ירושלים, נפת ירושלים, מחוז ירושלים, no, ישראל","(31.7644673, 35.1611003, 0.0)",31.7644673,35.1611003,0
394,מעלה זאב ,ירושלים,ישראל,"מעלה זאב ,ירושלים,ישראל","מעלה זאב, סן סימון, ירושלים, נפת ירושלים, מחוז ירושלים, no, ישראל","(31.760023, 35.2074692, 0.0)",31.760023,35.2074692,0
396,מעלות עיר דוד ,ירושלים,ישראל,"מעלות עיר דוד ,ירושלים,ישראל","מעלות עיר דוד, سلوان, أبو طور, ירושלים, נפת ירושלים, מחוז ירושלים, no, ישראל","(31.7729543, 35.2347632, 0.0)",31.7729543,35.2347632,0
397,מקווה ישראל ,ירושלים,ישראל,"מקווה ישראל ,ירושלים,ישראל","מקווה ישראל, מעלות דפנה, ירושלים, נפת ירושלים, מחוז ירושלים, no, ישראל","(31.797368, 35.2236899, 0.0)",31.797368,35.2236899,0
398,מקור חיים ,ירושלים,ישראל,"מקור חיים ,ירושלים,ישראל","מקור חיים, ירושלים, נפת ירושלים, מחוז ירושלים, 9362522, ישראל","(31.7555555, 35.2126203, 0.0)",31.7555555,35.2126203,0
399,מקור חיים 44,ירושלים,ישראל,"מקור חיים 44,ירושלים,ישראל","44, מקור חיים, بيت صفافا, רמת רחל, ירושלים, נפת ירושלים, מחוז ירושלים, no, ישראל","(31.7534227, 35.2109391, 0.0)",31.7534227,35.2109391,0
400,מקסיקו ,ירושלים,ישראל,"מקסיקו ,ירושלים,ישראל","מקסיקו, עיר גנים, ירושלים, נפת ירושלים, מחוז ירושלים, no, ישראל","(31.75847, 35.1692248, 0.0)",31.75847,35.1692248,0
403,מרדכי אלקחי 4,ירושלים,ישראל,"מרדכי אלקחי 4,ירושלים,ישראל","4, מרדכי אלקחי, صور باهر, רמת רחל, ירושלים, נפת ירושלים, מחוז ירושלים, no, ישראל","(31.747546, 35.2318849, 0.0)",31.747546,35.2318849,0
404,מרדכי עליאש ,ירושלים,ישראל,"מרדכי עליאש ,ירושלים,ישראל","מרדכי עליאש, נחלאות, ירושלים, נפת ירושלים, מחוז ירושלים, no, ישראל","(31.7822406, 35.2156581, 0.0)",31.7822406,35.2156581,0
405,משגב לדך ,ירושלים,ישראל,"משגב לדך ,ירושלים,ישראל","משגב לדך, הרובע היהודי, העיר העתיקה, ירושלים, נפת ירושלים, מחוז ירושלים, no, ישראל","(31.7765267, 35.2327787, 0.0)",31.7765267,35.2327787,0
406,משה אהרון טוב ,ירושלים,ישראל,"משה אהרון טוב ,ירושלים,ישראל","משה אהרון טוב, רמת בית הכרם, ירושלים, נפת ירושלים, מחוז ירושלים, no, ישראל","(31.7714644, 35.1918543, 0.0)",31.7714644,35.1918543,0
407,משה סנה ,ירושלים,ישראל,"משה סנה ,ירושלים,ישראל","משה סנה, פסגת זאב צפון, ירושלים, נפת ירושלים, מחוז ירושלים, no, ישראל","(31.8389637, 35.231462, 0.0)",31.8389637,35.231462,0
408,משה קול ,ירושלים,ישראל,"משה קול ,ירושלים,ישראל","משה קול, יפה נוף, כפר שאול, ירושלים, נפת ירושלים, מחוז ירושלים, no, ישראל","(31.7745922, 35.1874705, 0.0)",31.7745922,35.1874705,0
409,משה קול 4,ירושלים,ישראל,"משה קול 4,ירושלים,ישראל","4, משה קול, יפה נוף, כפר שאול, ירושלים, נפת ירושלים, מחוז ירושלים, no, ישראל","(31.7742224, 35.187754, 0.0)",31.7742224,35.187754,0
410,משה קליינמן ,ירושלים,ישראל,"משה קליינמן ,ירושלים,ישראל","משה קליינמן, קרית היובל, ירושלים, נפת ירושלים, מחוז ירושלים, no, ישראל","(31.7632249, 35.1749076, 0.0)",31.7632249,35.1749076,0
411,משה רחמילביץ' ,ירושלים,ישראל,"משה רחמילביץ' ,ירושלים,ישראל","משה רחמילביץ', פסגת זאב מערב, פסגת זאב, ירושלים, נפת ירושלים, מחוז ירושלים, no, ישראל","(31.8222438, 35.2383933, 0.0)",31.8222438,35.2383933,0
412,משה רחמילביץ' 4,ירושלים,ישראל,"משה רחמילביץ' 4,ירושלים,ישראל","4, משה רחמילביץ', פסגת זאב מערב, פסגת זאב, ירושלים, נפת ירושלים, מחוז ירושלים, no, ישראל","(31.8222656, 35.2391286, 0.0)",31.8222656,35.2391286,0
413,משכן שילה 4,ירושלים,ישראל,"משכן שילה 4,ירושלים,ישראל","4, משכן שילה, בית הכרם, כפר שאול, ירושלים, נפת ירושלים, מחוז ירושלים, no, ישראל","(31.7748268, 35.1886179, 0.0)",31.7748268,35.1886179,0
414,משכנות ,ירושלים,ישראל,"משכנות ,ירושלים,ישראל","משכנות, נחלאות, ירושלים, נפת ירושלים, מחוז ירושלים, no, ישראל","(31.7827623, 35.2147591, 0.0)",31.7827623,35.2147591,0
416,נהוראי ,ירושלים,ישראל,"נהוראי ,ירושלים,ישראל","נהוראי, קטמונים (גוננים), ירושלים, נפת ירושלים, מחוז ירושלים, no, ישראל","(31.7536508, 35.2078692, 0.0)",31.7536508,35.2078692,0
417,נוסייבה ,ירושלים,ישראל,"נוסייבה ,ירושלים,ישראל","גן נוסייבה, ירושלים, נפת ירושלים, מחוז ירושלים, no, ישראל","(31.8386964, 35.226996238526496, 0.0)",31.8386964,35.22699624,0
418,נוסייבה 4,ירושלים,ישראל,"נוסייבה 4,ירושלים,ישראל","גן נוסייבה, ירושלים, נפת ירושלים, מחוז ירושלים, no, ישראל","(31.8386964, 35.226996238526496, 0.0)",31.8386964,35.22699624,0
420,נחל צין ,ירושלים,ישראל,"נחל צין ,ירושלים,ישראל","נחל צין, רמת אשכול, ירושלים, נפת ירושלים, מחוז ירושלים, no, ישראל","(31.8000478, 35.2238469, 0.0)",31.8000478,35.2238469,0
421,נחמיה ,ירושלים,ישראל,"נחמיה ,ירושלים,ישראל","נחמיה, הבוכרים, ירושלים, נפת ירושלים, מחוז ירושלים, no, ישראל","(31.7924861, 35.2161248, 0.0)",31.7924861,35.2161248,0
422,ניקנור ,ירושלים,ישראל,"ניקנור ,ירושלים,ישראל","ניקנור, קטמונים (גוננים), ירושלים, נפת ירושלים, מחוז ירושלים, no, ישראל","(31.7563073, 35.1991966, 0.0)",31.7563073,35.1991966,0
423,ניקרגואה ,ירושלים,ישראל,"ניקרגואה ,ירושלים,ישראל","ניקרגואה, קרית מנחם, ירושלים, נפת ירושלים, מחוז ירושלים, no, ישראל","(31.757679, 35.1622101, 0.0)",31.757679,35.1622101,0
424,ניתאי הארבלי ,ירושלים,ישראל,"ניתאי הארבלי ,ירושלים,ישראל","ניתאי הארבלי, קטמונים (גוננים), ירושלים, נפת ירושלים, מחוז ירושלים, no, ישראל","(31.7534129, 35.2005276, 0.0)",31.7534129,35.2005276,0
425,נלסון גליק 4,ירושלים,ישראל,"נלסון גליק 4,ירושלים,ישראל","4, נלסון גליק, רמות, ירושלים, נפת ירושלים, מחוז ירושלים, no, ישראל","(31.8129001, 35.1947558, 0.0)",31.8129001,35.1947558,0
426,נפתלי ,ירושלים,ישראל,"נפתלי ,ירושלים,ישראל","נפתלי, בקעה, ירושלים, נפת ירושלים, מחוז ירושלים, no, ישראל","(31.7587254, 35.2172763, 0.0)",31.7587254,35.2172763,0
427,נתיב המזלות ,ירושלים,ישראל,"נתיב המזלות ,ירושלים,ישראל","נתיב המזלות, פסגת זאב צפון, بيت حنينا, ירושלים, נפת ירושלים, מחוז ירושלים, no, ישראל","(31.8285989, 35.2375608, 0.0)",31.8285989,35.2375608,0
428,נתיב המזלות 4,ירושלים,ישראל,"נתיב המזלות 4,ירושלים,ישראל","נתיב המזלות, פסגת זאב צפון, بيت حنينا, ירושלים, נפת ירושלים, מחוז ירושלים, no, ישראל","(31.8285989, 35.2375608, 0.0)",31.8285989,35.2375608,0
432,סולם יעקב ,ירושלים,ישראל,"סולם יעקב ,ירושלים,ישראל","סולם יעקב, רמות א', ירושלים, נפת ירושלים, מחוז ירושלים, no, ישראל","(31.8173067, 35.2026588, 0.0)",31.8173067,35.2026588,0
433,סולם יעקב ,ירושלים,ישראל,"סולם יעקב ,ירושלים,ישראל","סולם יעקב, רמות א', ירושלים, נפת ירושלים, מחוז ירושלים, no, ישראל","(31.8173067, 35.2026588, 0.0)",31.8173067,35.2026588,0
434,סוקולוב ,ירושלים,ישראל,"סוקולוב ,ירושלים,ישראל","סוקולוב, טלביה, ירושלים, נפת ירושלים, מחוז ירושלים, no, ישראל","(31.7716578, 35.2190459, 0.0)",31.7716578,35.2190459,0
436,סמדר ,ירושלים,ישראל,"סמדר ,ירושלים,ישראל","סמדר, יפה נוף, כפר שאול, ירושלים, נפת ירושלים, מחוז ירושלים, no, ישראל","(31.7779171, 35.1844316, 0.0)",31.7779171,35.1844316,0
437,סנט פרנציס ,ירושלים,ישראל,"סנט פרנציס ,ירושלים,ישראל","סנט פרנציס, הרובע הנוצרי, העיר העתיקה, ירושלים, נפת ירושלים, מחוז ירושלים, no, ישראל","(31.7788385, 35.2280576, 0.0)",31.7788385,35.2280576,0
438,עובדיה 4,ירושלים,ישראל,"עובדיה 4,ירושלים,ישראל","4, עובדיה, גאולה, ירושלים, נפת ירושלים, מחוז ירושלים, no, ישראל","(31.7902672, 35.215785, 0.0)",31.7902672,35.215785,0
439,עולי הגרדום ,ירושלים,ישראל,"עולי הגרדום ,ירושלים,ישראל","עולי הגרדום, תלפיות מזרח, ירושלים, נפת ירושלים, מחוז ירושלים, no, ישראל","(31.7530852, 35.2325695, 0.0)",31.7530852,35.2325695,0
440,עולי הגרדום 4,ירושלים,ישראל,"עולי הגרדום 4,ירושלים,ישראל","4, עולי הגרדום, תלפיות מזרח, ירושלים, נפת ירושלים, מחוז ירושלים, no, ישראל","(31.7528724, 35.2350054, 0.0)",31.7528724,35.2350054,0
441,עומר בן אל ח'טאב ,ירושלים,ישראל,"עומר בן אל ח'טאב ,ירושלים,ישראל","עומר בן אל-ח'טאב, הרובע הארמני, העיר העתיקה, ירושלים, נפת ירושלים, מחוז ירושלים, no, ישראל","(31.7757441, 35.2273927, 0.0)",31.7757441,35.2273927,0
443,עזרא ,ירושלים,ישראל,"עזרא ,ירושלים,ישראל","עזרא, בית ישראל, ירושלים, נפת ירושלים, מחוז ירושלים, no, ישראל","(31.7898536, 35.2207247, 0.0)",31.7898536,35.2207247,0
444,עזרת תורה ,ירושלים,ישראל,"עזרת תורה ,ירושלים,ישראל","עזרת תורה, קרית בעלז, מקור ברוך, ירושלים, נפת ירושלים, מחוז ירושלים, no, ישראל","(31.7946397, 35.2120802, 0.0)",31.7946397,35.2120802,0
445,עזרת תורה ,ירושלים,ישראל,"עזרת תורה ,ירושלים,ישראל","עזרת תורה, קרית בעלז, מקור ברוך, ירושלים, נפת ירושלים, מחוז ירושלים, no, ישראל","(31.7946397, 35.2120802, 0.0)",31.7946397,35.2120802,0
446,עין אל לוזה ,ירושלים,ישראל,"עין אל לוזה ,ירושלים,ישראל","عين اللوزة, מעלות עיר דוד, מעלה הזיתים, أبو طور, ירושלים, נפת ירושלים, מחוז ירושלים, no, ישראל","(31.762906, 35.243114, 0.0)",31.762906,35.243114,0
447,עין גדי ,ירושלים,ישראל,"עין גדי ,ירושלים,ישראל","עין גדי, תלפיות, ירושלים, נפת ירושלים, מחוז ירושלים, no, ישראל","(31.7529801, 35.2223591, 0.0)",31.7529801,35.2223591,0
450,עם ועולמו ,ירושלים,ישראל,"עם ועולמו ,ירושלים,ישראל","עם ועולמו, אזור תעשיה גבעת שאול, גבעת שאול, כפר שאול, ירושלים, נפת ירושלים, מחוז ירושלים, no, ישראל","(31.7881194, 35.1875866, 0.0)",31.7881194,35.1875866,0
451,עמוס ,ירושלים,ישראל,"עמוס ,ירושלים,ישראל","עמוס, גאולה, ירושלים, נפת ירושלים, מחוז ירושלים, no, ישראל","(31.7909458, 35.2162511, 0.0)",31.7909458,35.2162511,0
453,עמק רפאים ,ירושלים,ישראל,"עמק רפאים ,ירושלים,ישראל","עמק רפאים, המושבת הגרמנית, ירושלים, נפת ירושלים, מחוז ירושלים, no, ישראל","(31.766943, 35.2231189, 0.0)",31.766943,35.2231189,0
456,עץ הדר ,ירושלים,ישראל,"עץ הדר ,ירושלים,ישראל","עץ הדר, מעלות דפנה, ירושלים, נפת ירושלים, מחוז ירושלים, no, ישראל","(31.7957307, 35.221593, 0.0)",31.7957307,35.221593,0
457,עץ הדר ,ירושלים,ישראל,"עץ הדר ,ירושלים,ישראל","עץ הדר, מעלות דפנה, ירושלים, נפת ירושלים, מחוז ירושלים, no, ישראל","(31.7957307, 35.221593, 0.0)",31.7957307,35.221593,0
458,עקבת א סראיה ,ירושלים,ישראל,"עקבת א סראיה ,ירושלים,ישראל","עקבת א סראיה, הרובע הנוצרי, העיר העתיקה, ירושלים, נפת ירושלים, מחוז ירושלים, no, ישראל","(31.7781981, 35.2320433, 0.0)",31.7781981,35.2320433,0
459,עקבת א סראיה 4,ירושלים,ישראל,"עקבת א סראיה 4,ירושלים,ישראל","עקבת א סראיה, הרובע הנוצרי, העיר העתיקה, ירושלים, נפת ירושלים, מחוז ירושלים, no, ישראל","(31.7781981, 35.2320433, 0.0)",31.7781981,35.2320433,0
460,עתניאל ,ירושלים,ישראל,"עתניאל ,ירושלים,ישראל","עתניאל, המושבת הגרמנית, ירושלים, נפת ירושלים, מחוז ירושלים, no, ישראל","(31.7628646, 35.2223624, 0.0)",31.7628646,35.2223624,0
461,פ.צ. חיות ,ירושלים,ישראל,"פ.צ. חיות ,ירושלים,ישראל","פ. צ. חיות, נוה יעקב, ירושלים, נפת ירושלים, מחוז ירושלים, no, ישראל","(31.8430296, 35.2408332, 0.0)",31.8430296,35.2408332,0
462,פארן ,ירושלים,ישראל,"פארן ,ירושלים,ישראל","פארן, קרית מנחם בגין, רמת אשכול, ירושלים, נפת ירושלים, מחוז ירושלים, no, ישראל","(31.8011934, 35.2271444, 0.0)",31.8011934,35.2271444,0
463,פארן ,ירושלים,ישראל,"פארן ,ירושלים,ישראל","פארן, קרית מנחם בגין, רמת אשכול, ירושלים, נפת ירושלים, מחוז ירושלים, no, ישראל","(31.8011934, 35.2271444, 0.0)",31.8011934,35.2271444,0
464,פיידי אל עלמי ,ירושלים,ישראל,"פיידי אל עלמי ,ירושלים,ישראל","פיידי אל עלמי, بيت حنينا, ירושלים, נפת ירושלים, מחוז ירושלים, no, ישראל","(31.8286927, 35.229532, 0.0)",31.8286927,35.229532,0
466,פלורנטין ,ירושלים,ישראל,"פלורנטין ,ירושלים,ישראל","פלורנטין, קרית היובל, ירושלים, נפת ירושלים, מחוז ירושלים, no, ישראל","(31.7602833, 35.1728634, 0.0)",31.7602833,35.1728634,0
467,פנורמה ,ירושלים,ישראל,"פנורמה ,ירושלים,ישראל","דן פנורמה, קרן היסוד, טלביה, ירושלים, נפת ירושלים, מחוז ירושלים, no, ישראל","(31.7727793, 35.221501, 0.0)",31.7727793,35.221501,0
468,פנים מאירות ,ירושלים,ישראל,"פנים מאירות ,ירושלים,ישראל","פנים מאירות, קריית מטרסדורף, רוממה, ירושלים, נפת ירושלים, מחוז ירושלים, no, ישראל","(31.7969124, 35.200347, 0.0)",31.7969124,35.200347,0
469,פרי חדש ,ירושלים,ישראל,"פרי חדש ,ירושלים,ישראל","פרי חדש, גאולה, ירושלים, נפת ירושלים, מחוז ירושלים, no, ישראל","(31.7871834, 35.2167658, 0.0)",31.7871834,35.2167658,0
470,פרי חדש ,ירושלים,ישראל,"פרי חדש ,ירושלים,ישראל","פרי חדש, גאולה, ירושלים, נפת ירושלים, מחוז ירושלים, no, ישראל","(31.7871834, 35.2167658, 0.0)",31.7871834,35.2167658,0
471,פרימו לוי ,ירושלים,ישראל,"פרימו לוי ,ירושלים,ישראל","פרימו לוי, תלפיות, רמת רחל, ירושלים, נפת ירושלים, מחוז ירושלים, no, ישראל","(31.7512135, 35.2268403, 0.0)",31.7512135,35.2268403,0
472,פתח תקווה ,ירושלים,ישראל,"פתח תקווה ,ירושלים,ישראל","פתח תקווה א, פתח תקוה, קריית מטרסדורף, רוממה, ירושלים, נפת ירושלים, מחוז ירושלים, no, ישראל","(31.793709, 35.203449, 0.0)",31.793709,35.203449,0
473,צביה ויצחק ,ירושלים,ישראל,"צביה ויצחק ,ירושלים,ישראל","צביה ויצחק, גילה, ירושלים, נפת ירושלים, מחוז ירושלים, no, ישראל","(31.7320759, 35.1872676, 0.0)",31.7320759,35.1872676,0
474,צביה ויצחק ,ירושלים,ישראל,"צביה ויצחק ,ירושלים,ישראל","צביה ויצחק, גילה, ירושלים, נפת ירושלים, מחוז ירושלים, no, ישראל","(31.7320759, 35.1872676, 0.0)",31.7320759,35.1872676,0
475,צביה ויצחק 4,ירושלים,ישראל,"צביה ויצחק 4,ירושלים,ישראל","צביה ויצחק, גילה, ירושלים, נפת ירושלים, מחוז ירושלים, no, ישראל","(31.7322262, 35.1870943, 0.0)",31.7322262,35.1870943,0
476,צפניה ,ירושלים,ישראל,"צפניה ,ירושלים,ישראל","צפניה, הבוכרים, ירושלים, נפת ירושלים, מחוז ירושלים, no, ישראל","(31.7902368, 35.2191105, 0.0)",31.7902368,35.2191105,0
477,צפניה 4,ירושלים,ישראל,"צפניה 4,ירושלים,ישראל","4, צפניה, הבוכרים, ירושלים, נפת ירושלים, מחוז ירושלים, no, ישראל","(31.7903162, 35.2187917, 0.0)",31.7903162,35.2187917,0
478,צרת 4,ירושלים,ישראל,"צרת 4,ירושלים,ישראל","צרת, מקור חיים, ירושלים, נפת ירושלים, מחוז ירושלים, no, ישראל","(31.752287, 35.212587, 0.0)",31.752287,35.212587,0
479,קדימה ,ירושלים,ישראל,"קדימה ,ירושלים,ישראל","קדימה, רמות א', ירושלים, נפת ירושלים, מחוז ירושלים, no, ישראל","(31.8131089, 35.200297, 0.0)",31.8131089,35.200297,0
480,קהילות יעקב ,ירושלים,ישראל,"קהילות יעקב ,ירושלים,ישראל","קהילות יעקב, קהילת יעקב, רמת שלמה, ירושלים, נפת ירושלים, מחוז ירושלים, no, ישראל","(31.812803, 35.218441, 0.0)",31.812803,35.218441,0
481,קוסטה ריקה ,ירושלים,ישראל,"קוסטה ריקה ,ירושלים,ישראל","קוסטה ריקה, עיר גנים, ירושלים, נפת ירושלים, מחוז ירושלים, no, ישראל","(31.7539591, 35.1729546, 0.0)",31.7539591,35.1729546,0
482,קורא הדורות ,ירושלים,ישראל,"קורא הדורות ,ירושלים,ישראל","קורא הדורות, תלפיות, רמת רחל, ירושלים, נפת ירושלים, מחוז ירושלים, no, ישראל","(31.7488621, 35.2222078, 0.0)",31.7488621,35.2222078,0
483,קורא הדורות ,ירושלים,ישראל,"קורא הדורות ,ירושלים,ישראל","קורא הדורות, תלפיות, רמת רחל, ירושלים, נפת ירושלים, מחוז ירושלים, no, ישראל","(31.7488621, 35.2222078, 0.0)",31.7488621,35.2222078,0
485,קנאי הגליל 4,ירושלים,ישראל,"קנאי הגליל 4,ירושלים,ישראל","4, קנאי הגליל, קטמונים (גוננים), ירושלים, נפת ירושלים, מחוז ירושלים, no, ישראל","(31.7558773, 35.1999131, 0.0)",31.7558773,35.1999131,0
487,קרן היסוד ,ירושלים,ישראל,"קרן היסוד ,ירושלים,ישראל","קרן היסוד, טלביה, ירושלים, נפת ירושלים, מחוז ירושלים, no, ישראל","(31.7749983, 35.2178132, 0.0)",31.7749983,35.2178132,0
488,ראס אל עמוד ,ירושלים,ישראל,"ראס אל עמוד ,ירושלים,ישראל","رأس العمود, ירושלים, נפת ירושלים, מחוז ירושלים, 91190, ישראל","(31.7701969, 35.2439153, 0.0)",31.7701969,35.2439153,0
490,ראשית חכמה ,ירושלים,ישראל,"ראשית חכמה ,ירושלים,ישראל","ראשית חכמה, גאולה, ירושלים, נפת ירושלים, מחוז ירושלים, no, ישראל","(31.787834, 35.2167772, 0.0)",31.787834,35.2167772,0
491,רבי בנימין ,ירושלים,ישראל,"רבי בנימין ,ירושלים,ישראל","רבי בנימין, קרית משה, כפר שאול, ירושלים, נפת ירושלים, מחוז ירושלים, no, ישראל","(31.7817775, 35.1941389, 0.0)",31.7817775,35.1941389,0
492,רבי מאיר ,ירושלים,ישראל,"רבי מאיר ,ירושלים,ישראל","רבי מאיר, מקור חיים, ירושלים, נפת ירושלים, מחוז ירושלים, no, ישראל","(31.7597813, 35.2108595, 0.0)",31.7597813,35.2108595,0
493,רבי סעדיה גאון 4,ירושלים,ישראל,"רבי סעדיה גאון 4,ירושלים,ישראל","4, רבי סעדיה גאון, קרית שמואל, ירושלים, נפת ירושלים, מחוז ירושלים, no, ישראל","(31.7728335, 35.2102096, 0.0)",31.7728335,35.2102096,0
494,רבי צדוק ,ירושלים,ישראל,"רבי צדוק ,ירושלים,ישראל","רבי צדוק, הולילנד, גבעת מרדכי, ירושלים, נפת ירושלים, מחוז ירושלים, no, ישראל","(31.7539164, 35.1939041, 0.0)",31.7539164,35.1939041,0
495,רבן יוחנן בן זכאי ,ירושלים,ישראל,"רבן יוחנן בן זכאי ,ירושלים,ישראל","רבן יוחנן בן זכאי, מקור חיים, ירושלים, נפת ירושלים, מחוז ירושלים, no, ישראל","(31.7590144, 35.213517, 0.0)",31.7590144,35.213517,0
496,רבעה אל עדוויה ,ירושלים,ישראל,"רבעה אל עדוויה ,ירושלים,ישראל","בי''ח מוקסד/רבעה אל עדוויה, שפשף ' אל אדאווייה, מעלה הזיתים, الطور‎, ירושלים, נפת ירושלים, מחוז ירושלים, no, ישראל","(31.780956, 35.246269, 0.0)",31.780956,35.246269,0
497,רבקה ,ירושלים,ישראל,"רבקה ,ירושלים,ישראל","רבקה, תלפיות, ירושלים, נפת ירושלים, מחוז ירושלים, no, ישראל","(31.7541672, 35.2196917, 0.0)",31.7541672,35.2196917,0
499,רחובות הבוכרים ,ירושלים,ישראל,"רחובות הבוכרים ,ירושלים,ישראל","רחובות הבוכרים, הבוכרים, ירושלים, נפת ירושלים, מחוז ירושלים, no, ישראל","(31.790984, 35.2207426, 0.0)",31.790984,35.2207426,0
500,רחל אמנו 4,ירושלים,ישראל,"רחל אמנו 4,ירושלים,ישראל","4, רחל אמנו, המושבת הגרמנית, ירושלים, נפת ירושלים, מחוז ירושלים, no, ישראל","(31.7633595, 35.2184946, 0.0)",31.7633595,35.2184946,0
501,ריש לקיש ,ירושלים,ישראל,"ריש לקיש ,ירושלים,ישראל","ריש לקיש, בקעה, ירושלים, נפת ירושלים, מחוז ירושלים, no, ישראל","(31.7608799, 35.2131382, 0.0)",31.7608799,35.2131382,0
502,רמת הגולן ,ירושלים,ישראל,"רמת הגולן ,ירושלים,ישראל","רמת הגולן, רמת אשכול, ירושלים, נפת ירושלים, מחוז ירושלים, no, ישראל","(31.8023162, 35.2227547, 0.0)",31.8023162,35.2227547,0
503,רש''י 4,ירושלים,ישראל,"רש''י 4,ירושלים,ישראל","4, רש""י, מקור ברוך, ירושלים, נפת ירושלים, מחוז ירושלים, no, ישראל","(31.7880312, 35.2086028, 0.0)",31.7880312,35.2086028,0
504,רש''י 4,ירושלים,ישראל,"רש''י 4,ירושלים,ישראל","4, רש""י, מקור ברוך, ירושלים, נפת ירושלים, מחוז ירושלים, no, ישראל","(31.7880312, 35.2086028, 0.0)",31.7880312,35.2086028,0
505,רשב''ג ,ירושלים,ישראל,"רשב''ג ,ירושלים,ישראל","רשב""ג, מקור חיים, ירושלים, נפת ירושלים, מחוז ירושלים, no, ישראל","(31.7552074, 35.2086315, 0.0)",31.7552074,35.2086315,0
506,שאול אביגור ,ירושלים,ישראל,"שאול אביגור ,ירושלים,ישראל","שאול אביגור, חומת שמואל, ירושלים, נפת ירושלים, מחוז ירושלים, no, ישראל","(31.7243981, 35.2212335, 0.0)",31.7243981,35.2212335,0
507,שאול המלך ,ירושלים,ישראל,"שאול המלך ,ירושלים,ישראל","שאול המלך, סנהדריה, ירושלים, נפת ירושלים, מחוז ירושלים, no, ישראל","(31.7999081, 35.2205738, 0.0)",31.7999081,35.2205738,0
508,שאר ישוב ,ירושלים,ישראל,"שאר ישוב ,ירושלים,ישראל","שאר ישוב, רמות ב', ירושלים, נפת ירושלים, מחוז ירושלים, no, ישראל","(31.8104947, 35.1955908, 0.0)",31.8104947,35.1955908,0
509,שבטי ישראל ,ירושלים,ישראל,"שבטי ישראל ,ירושלים,ישראל","שבטי ישראל, מורשה, ירושלים, נפת ירושלים, מחוז ירושלים, no, ישראל","(31.7840431, 35.2247538, 0.0)",31.7840431,35.2247538,0
511,שבתאי הנגבי 44,ירושלים,ישראל,"שבתאי הנגבי 44,ירושלים,ישראל","שבתאי הנגבי, شرفات, ירושלים, נפת ירושלים, מחוז ירושלים, no, ישראל","(31.7385912, 35.1953667, 0.0)",31.7385912,35.1953667,0
512,שג'רת אל דור ,ירושלים,ישראל,"שג'רת אל דור ,ירושלים,ישראל","שג'רת אל דור, بيت حنينا, ירושלים, נפת ירושלים, מחוז ירושלים, no, ישראל","(31.8261898, 35.228492, 0.0)",31.8261898,35.228492,0
515,שדרות בן מיימון ,ירושלים,ישראל,"שדרות בן מיימון ,ירושלים,ישראל","ככר צרפת/שדרות בן מיימון, עזה, טלביה, ירושלים, נפת ירושלים, מחוז ירושלים, no, ישראל","(31.774668, 35.217444, 0.0)",31.774668,35.217444,0
516,שדרות המאירי ,ירושלים,ישראל,"שדרות המאירי ,ירושלים,ישראל","שדרות המאירי, קרית משה, כפר שאול, ירושלים, נפת ירושלים, מחוז ירושלים, no, ישראל","(31.7875339, 35.1950541, 0.0)",31.7875339,35.1950541,0
517,שדרות המוזיאונים ,ירושלים,ישראל,"שדרות המוזיאונים ,ירושלים,ישראל","שדרות המוזיאונים/אליעזר קפלן, המוזיאונים, גבעת רם, ירושלים, נפת ירושלים, מחוז ירושלים, no, ישראל","(31.779093, 35.19921, 0.0)",31.779093,35.19921,0
518,שדרות הרצל 4,ירושלים,ישראל,"שדרות הרצל 4,ירושלים,ישראל","שדרות הרצל/הר הרצל, הרצל, יפה נוף, כפר שאול, ירושלים, נפת ירושלים, מחוז ירושלים, no, ישראל","(31.773874, 35.183138, 0.0)",31.773874,35.183138,0
519,שדרות לוי אשכול 4,ירושלים,ישראל,"שדרות לוי אשכול 4,ירושלים,ישראל","שדרות לוי אשכול, בית שמש, בית ומנוחה, בית שמש, נפת ירושלים, מחוז ירושלים, no, ישראל","(31.7404691, 34.9970752, 0.0)",31.7404691,34.9970752,0
520,שדרות משה דיין ,ירושלים,ישראל,"שדרות משה דיין ,ירושלים,ישראל","שדרות משה דיין/מזל שור, משה דיין, פסגת זאב צפון, بيت حنينا, ירושלים, נפת ירושלים, מחוז ירושלים, no, ישראל","(31.832649, 35.234547, 0.0)",31.832649,35.234547,0
521,שדרות משה דיין ,ירושלים,ישראל,"שדרות משה דיין ,ירושלים,ישראל","שדרות משה דיין/מזל שור, משה דיין, פסגת זאב צפון, بيت حنينا, ירושלים, נפת ירושלים, מחוז ירושלים, no, ישראל","(31.832649, 35.234547, 0.0)",31.832649,35.234547,0
522,שדרות משה דיין ,ירושלים,ישראל,"שדרות משה דיין ,ירושלים,ישראל","שדרות משה דיין/מזל שור, משה דיין, פסגת זאב צפון, بيت حنينا, ירושלים, נפת ירושלים, מחוז ירושלים, no, ישראל","(31.832649, 35.234547, 0.0)",31.832649,35.234547,0
523,שדרות סיירת דוכיפת ,ירושלים,ישראל,"שדרות סיירת דוכיפת ,ירושלים,ישראל","שדרות סיירת דוכיפת/חיל האוויר, סיירת דוכיפת, פסגת זאב מרכז, פסגת זאב, ירושלים, נפת ירושלים, מחוז ירושלים, no, ישראל","(31.828575, 35.246635, 0.0)",31.828575,35.246635,0
525,שדרות צ'רצ'יל ,ירושלים,ישראל,"שדרות צ'רצ'יל ,ירושלים,ישראל","שדרות צ'רצ'יל, קרית מנחם בגין, הר הצופים, ירושלים, נפת ירושלים, מחוז ירושלים, no, ישראל","(31.797454, 35.24009, 0.0)",31.797454,35.24009,0
526,שדרות ש''י עגנון 4,ירושלים,ישראל,"שדרות ש''י עגנון 4,ירושלים,ישראל","4, שדרות ש""י עגנון, סן סימון, ירושלים, נפת ירושלים, מחוז ירושלים, no, ישראל","(31.7639065, 35.2043103, 0.0)",31.7639065,35.2043103,0
528,שומרי אמונים ,ירושלים,ישראל,"שומרי אמונים ,ירושלים,ישראל","שומרי אמונים, בית ישראל, ירושלים, נפת ירושלים, מחוז ירושלים, no, ישראל","(31.7869869, 35.22524, 0.0)",31.7869869,35.22524,0
529,שושנה פוליאקוב 4,ירושלים,ישראל,"שושנה פוליאקוב 4,ירושלים,ישראל","4, שושנה פוליאקוב, קרית משה, כפר שאול, ירושלים, נפת ירושלים, מחוז ירושלים, no, ישראל","(31.7855615, 35.1953565, 0.0)",31.7855615,35.1953565,0
531,שלמה באום ,ירושלים,ישראל,"שלמה באום ,ירושלים,ישראל","שלמה באום, חומת שמואל, ירושלים, נפת ירושלים, מחוז ירושלים, no, ישראל","(31.7216281, 35.2185501, 0.0)",31.7216281,35.2185501,0
532,שלמה בן יוסף ,ירושלים,ישראל,"שלמה בן יוסף ,ירושלים,ישראל","שלמה בן יוסף, תלפיות מזרח, ירושלים, נפת ירושלים, מחוז ירושלים, no, ישראל","(31.7455153, 35.2369202, 0.0)",31.7455153,35.2369202,0
533,שלמה בן יוסף ,ירושלים,ישראל,"שלמה בן יוסף ,ירושלים,ישראל","שלמה בן יוסף, תלפיות מזרח, ירושלים, נפת ירושלים, מחוז ירושלים, no, ישראל","(31.7455153, 35.2369202, 0.0)",31.7455153,35.2369202,0
534,שלמה דוגה ,ירושלים,ישראל,"שלמה דוגה ,ירושלים,ישראל","שלמה דוגה, גילה, ירושלים, נפת ירושלים, מחוז ירושלים, no, ישראל","(31.7290667, 35.1975475, 0.0)",31.7290667,35.1975475,0
535,שלמה המלך ,ירושלים,ישראל,"שלמה המלך ,ירושלים,ישראל","שלמה המלך, מורשה, ירושלים, נפת ירושלים, מחוז ירושלים, no, ישראל","(31.7776551, 35.2227665, 0.0)",31.7776551,35.2227665,0
537,שלמה מוסיוף ,ירושלים,ישראל,"שלמה מוסיוף ,ירושלים,ישראל","שלמה מוסיוף, הבוכרים, ירושלים, נפת ירושלים, מחוז ירושלים, no, ישראל","(31.791425, 35.2210828, 0.0)",31.791425,35.2210828,0
538,שמאי ,ירושלים,ישראל,"שמאי ,ירושלים,ישראל","שמאי, נחלאות, ירושלים, נפת ירושלים, מחוז ירושלים, no, ישראל","(31.7810738, 35.2178333, 0.0)",31.7810738,35.2178333,0
539,שמגר ,ירושלים,ישראל,"שמגר ,ירושלים,ישראל","שמגר, קרית בעלז, מקור ברוך, ירושלים, נפת ירושלים, מחוז ירושלים, no, ישראל","(31.7928956, 35.2085419, 0.0)",31.7928956,35.2085419,0
540,שמואל הנביא ,ירושלים,ישראל,"שמואל הנביא ,ירושלים,ישראל","שמואל הנביא, בית ישראל, ירושלים, נפת ירושלים, מחוז ירושלים, no, ישראל","(31.7898989, 35.225091, 0.0)",31.7898989,35.225091,0
541,שמואל הנביא 4,ירושלים,ישראל,"שמואל הנביא 4,ירושלים,ישראל","שמואל הנביא, מעלות דפנה, ירושלים, נפת ירושלים, מחוז ירושלים, no, ישראל","(31.7920342, 35.2237633, 0.0)",31.7920342,35.2237633,0
542,שמואל עדן ,ירושלים,ישראל,"שמואל עדן ,ירושלים,ישראל","שמואל עדן, פסגת זאב מערב, بيت حنينا, ירושלים, נפת ירושלים, מחוז ירושלים, no, ישראל","(31.824996, 35.2376768, 0.0)",31.824996,35.2376768,0
543,שמחה הולצברג ,ירושלים,ישראל,"שמחה הולצברג ,ירושלים,ישראל","Simha Holtsberg, פסגת זאב צפון, بيت حنينا, ירושלים, נפת ירושלים, מחוז ירושלים, no, ישראל","(31.8346379, 35.2327692, 0.0)",31.8346379,35.2327692,0
544,שמיר ,ירושלים,ישראל,"שמיר ,ירושלים,ישראל","שמיר, شرفات, ירושלים, נפת ירושלים, מחוז ירושלים, no, ישראל","(31.7363013, 35.1944177, 0.0)",31.7363013,35.1944177,0
546,שמעון הצדיק ,ירושלים,ישראל,"שמעון הצדיק ,ירושלים,ישראל","שמעון הצדיק, קרית מנחם בגין, מעלות דפנה, ירושלים, נפת ירושלים, מחוז ירושלים, no, ישראל","(31.7934804, 35.2265141, 0.0)",31.7934804,35.2265141,0
547,שמריהו לוין ,ירושלים,ישראל,"שמריהו לוין ,ירושלים,ישראל","שמריהו לוין, קרית היובל, ירושלים, נפת ירושלים, מחוז ירושלים, no, ישראל","(31.7688529, 35.1714259, 0.0)",31.7688529,35.1714259,0
548,שמריהו לוין 4,ירושלים,ישראל,"שמריהו לוין 4,ירושלים,ישראל","4, שמריהו לוין, קרית היובל, ירושלים, נפת ירושלים, מחוז ירושלים, no, ישראל","(31.7691884, 35.1780792, 0.0)",31.7691884,35.1780792,0
549,שמשון פולנסקי ,ירושלים,ישראל,"שמשון פולנסקי ,ירושלים,ישראל","שמשון פולנסקי, מעלות דפנה, ירושלים, נפת ירושלים, מחוז ירושלים, no, ישראל","(31.7925198, 35.222458, 0.0)",31.7925198,35.222458,0
550,שערי משה ,ירושלים,ישראל,"שערי משה ,ירושלים,ישראל","שערי משה, מאה שערים, ירושלים, נפת ירושלים, מחוז ירושלים, no, ישראל","(31.7869583, 35.2209258, 0.0)",31.7869583,35.2209258,0
551,שערי תורה ,ירושלים,ישראל,"שערי תורה ,ירושלים,ישראל","שערי תורה, בית וגן, ירושלים, נפת ירושלים, מחוז ירושלים, no, ישראל","(31.7648898, 35.1831203, 0.0)",31.7648898,35.1831203,0
552,שפע חיים ,ירושלים,ישראל,"שפע חיים ,ירושלים,ישראל","שפע חיים, קרית בעלז, הר חוצבים, ירושלים, נפת ירושלים, מחוז ירושלים, no, ישראל","(31.7960582, 35.212212, 0.0)",31.7960582,35.212212,0
554,שרעבי 4,ירושלים,ישראל,"שרעבי 4,ירושלים,ישראל","שלום שרעבי, גאולה, ירושלים, נפת ירושלים, מחוז ירושלים, no, ישראל","(31.7885137, 35.2159339, 0.0)",31.7885137,35.2159339,0
555,ששת הימים ,ירושלים,ישראל,"ששת הימים ,ירושלים,ישראל","ששת הימים, קרית מנחם בגין, גבעת המבתר, ירושלים, נפת ירושלים, מחוז ירושלים, no, ישראל","(31.80097, 35.2304811, 0.0)",31.80097,35.2304811,0
556,תורה מציון ,ירושלים,ישראל,"תורה מציון ,ירושלים,ישראל","תורה מציון, קרית בעלז, מקור ברוך, ירושלים, נפת ירושלים, מחוז ירושלים, no, ישראל","(31.7910768, 35.2078298, 0.0)",31.7910768,35.2078298,0
557,תיאודור לביא ,ירושלים,ישראל,"תיאודור לביא ,ירושלים,ישראל","תיאודור לביא, רמות, ירושלים, נפת ירושלים, מחוז ירושלים, no, ישראל","(31.8181559, 35.19082, 0.0)",31.8181559,35.19082,0
558,תכלת מרדכי ,ירושלים,ישראל,"תכלת מרדכי ,ירושלים,ישראל","תכלת מרדכי, קרית בעלז, רוממה, ירושלים, נפת ירושלים, מחוז ירושלים, no, ישראל","(31.7942416, 35.2081728, 0.0)",31.7942416,35.2081728,0
559,תל חי ,ירושלים,ישראל,"תל חי ,ירושלים,ישראל","תל חי, קטמון הישנה, ירושלים, נפת ירושלים, מחוז ירושלים, no, ישראל","(31.7629241, 35.2132587, 0.0)",31.7629241,35.2132587,0
560,תרצה ,ירושלים,ישראל,"תרצה ,ירושלים,ישראל","תרצה, יפה נוף, כפר שאול, ירושלים, נפת ירושלים, מחוז ירושלים, no, ישראל","(31.7778384, 35.1855901, 0.0)",31.7778384,35.1855901,0
561,תרשיש ,ירושלים,ישראל,"תרשיש ,ירושלים,ישראל","תרשיש, גילה, ירושלים, נפת ירושלים, מחוז ירושלים, no, ישראל","(31.7317054, 35.1830993, 0.0)",31.7317054,35.1830993,0
